[{"postal_code":"null","coordinates":{"lng":"25.1341","lat":"35.3403"},"bank":"empty","address":"25is Avgoustou 64-90, Iraklio 712 02, Greece"},{"postal_code":"null","coordinates":{"lng":"25.1178","lat":"35.3353"},"bank":"empty","address":"Dionisiou Fragkiadaki 5, Iraklio 713 04, Greece"},{"postal_code":"null","coordinates":{"lng":"23.5936","lat":"38.464"},"bank":"empty","address":"Kriezotou 37, Chalkida 341 00, Greece"},{"postal_code":"null","coordinates":{"lng":"21.7402","lat":"38.2548"},"bank":"empty","address":"Sarantaporou 10-14, Patra 262 23, Greece"},{"postal_code":"null","coordinates":{"lng":"23.7292","lat":"37.935"},"bank":"empty","address":"Leof. Agiou Dimitriou 175, Ag. Dimitrios 173 43, Greece"},{"postal_code":"null","coordinates":{"lng":"22.9462","lat":"40.6392"},"bank":"empty","address":"Agiou Dimitriou 77-79, Thessaloniki 546 31, Greece"},{"postal_code":"null","coordinates":{"lng":"23.8246","lat":"38.0098"},"bank":"empty","address":"Agiou Ioannou 40, Ag. Paraskevi 153 42, Greece"},{"postal_code":"null","coordinates":{"lng":"25.7171","lat":"35.1892"},"bank":"empty","address":"Merarchias 11, Ag. Nikolaos 721 00, Greece"},{"postal_code":"null","coordinates":{"lng":"22.2046","lat":"40.5247"},"bank":"empty","address":"Venizelou 14, Veria 591 32, Greece"},{"postal_code":"null","coordinates":{"lng":"23.854","lat":"38.1391"},"bank":"empty","address":"Chelmou 16, Ag. Stefanos 145 65, Greece"},{"postal_code":"null","coordinates":{"lng":"22.9534","lat":"40.6301"},"bank":"empty","address":"Aggelaki 35, Thessaloniki 546 21, Greece"},{"postal_code":"null","coordinates":{"lng":"23.9237","lat":"35.5189"},"bank":"empty","address":"PEO Kissamou Chanion 24, Ag. Marina 730 14, Greece"},{"postal_code":"null","coordinates":{"lng":"23.8332","lat":"38.0134"},"bank":"empty","address":"Agiou Andreou 4, Ag. Paraskevi 153 43, Greece"},{"postal_code":"null","coordinates":{"lng":"23.6589","lat":"37.9882"},"bank":"empty","address":"Kountouriotou 2, Ag. Varvara 123 51, Greece"},{"postal_code":"null","coordinates":{"lng":"23.6929","lat":"37.9509"},"bank":"empty","address":"Leof. El. Venizelou 226, Kallithea 176 75, Greece"},{"postal_code":"null","coordinates":{"lng":"23.819","lat":"38.0129"},"bank":"empty","address":"Leof. Mesogeion 406, Ag. Paraskevi 153 42, Greece"},{"postal_code":"null","coordinates":{"lng":"23.819","lat":"38.0129"},"bank":"empty","address":"Leof. Mesogeion 406, Ag. Paraskevi 153 42, Greece"},{"postal_code":"null","coordinates":{"lng":"22.9458","lat":"40.6352"},"bank":"empty","address":"Egnatia 63, Thessaloniki 546 31, Greece"},{"postal_code":"null","coordinates":{"lng":"23.7316","lat":"37.94"},"bank":"empty","address":"Kolokotroni 2, Ag. Dimitrios 173 43, Greece"},{"postal_code":"null","coordinates":{"lng":"21.7326","lat":"38.2468"},"bank":"empty","address":"Patreos 4-12, Patra 262 21, Greece"},{"postal_code":"null","coordinates":{"lng":"23.701","lat":"38.0049"},"bank":"empty","address":"Ethnarchou Makariou 33, Peristeri 121 31, Greece"},{"postal_code":"null","coordinates":{"lng":"22.4128","lat":"39.6409"},"bank":"empty","address":"Kentavron 414, Larisa 412 22, Greece"},{"postal_code":"null","coordinates":{"lng":"22.4342","lat":"39.6317"},"bank":"empty","address":"PEO Athinon Thessalonikis, Larisa 413 35, Greece"},{"postal_code":"null","coordinates":{"lng":"23.7303","lat":"38.0006"},"bank":"empty","address":"Stavropoulou 2, Athina 112 52, Greece"},{"postal_code":"null","coordinates":{"lng":"23.7297","lat":"38.0076"},"bank":"empty","address":"Acharnon 276, Athina 104 46, Greece"},{"postal_code":"null","coordinates":{"lng":"23.7214","lat":"38.0277"},"bank":"empty","address":"Ag. Anargiron 29-31, Agii Anargiri 135 61, Greece"},{"postal_code":"null","coordinates":{"lng":"21.4082","lat":"38.6236"},"bank":"empty","address":"Anastasiadi 1-5, Agrinio 301 31, Greece"},{"postal_code":"null","coordinates":{"lng":"21.4108","lat":"38.6252"},"bank":"empty","address":"Kiprou 20, Agrinio 301 31, Greece"},{"postal_code":"null","coordinates":{"lng":"21.4068","lat":"38.6228"},"bank":"empty","address":"Papaioannou 7, Agrinio 301 31, Greece"},{"postal_code":"null","coordinates":{"lng":"23.6823","lat":"37.9918"},"bank":"empty","address":"Dimarchiou 1, Egaleo 122 42, Greece"},{"postal_code":"null","coordinates":{"lng":"23.6794","lat":"37.9919"},"bank":"empty","address":"Kapodistriou 2-4, Egaleo 122 41, Greece"},{"postal_code":"null","coordinates":{"lng":"23.4273","lat":"37.7463"},"bank":"empty","address":"Leof. Dimokratias 66, Egina 180 10, Greece"},{"postal_code":"null","coordinates":{"lng":"22.0888","lat":"38.251"},"bank":"empty","address":"Germanou 6-10, Egio 251 00, Greece"},{"postal_code":"null","coordinates":{"lng":"22.0858","lat":"38.2512"},"bank":"empty","address":"Filias, Egio 251 00, Greece"},{"postal_code":"null","coordinates":{"lng":"23.6428","lat":"37.9419"},"bank":"empty","address":"Akti Miaouli 23, Pireas 185 35, Greece"},{"postal_code":"null","coordinates":{"lng":"22.4384","lat":"40.6279"},"bank":"empty","address":"Peloponnisou 35, Alexandria 593 00, Greece"},{"postal_code":"null","coordinates":{"lng":"25.8789","lat":"40.8466"},"bank":"empty","address":"Arkadoupoleos 5-9, Alexandroupoli 681 00, Greece"},{"postal_code":"null","coordinates":{"lng":"25.875","lat":"40.8461"},"bank":"empty","address":"El. Venizelou 34-44, Alexandroupoli 681 00, Greece"},{"postal_code":"null","coordinates":{"lng":"24.0381","lat":"38.4108"},"bank":"empty","address":"Mpakola, Aliveri 345 00, Greece"},{"postal_code":"null","coordinates":{"lng":"25.1586","lat":"35.3385"},"bank":"empty","address":"Irodotou 140, Nea Alikarnassos 716 01, Greece"},{"postal_code":"null","coordinates":{"lng":"23.7137","lat":"37.9094"},"bank":"empty","address":"Leof. Posidonos 50, Alimos 174 55, Greece"},{"postal_code":"null","coordinates":{"lng":"22.7602","lat":"39.1815"},"bank":"empty","address":"Vasileos Georgiou A 45, Almiros 371 00, Greece"},{"postal_code":"null","coordinates":{"lng":"21.3478","lat":"37.7952"},"bank":"empty","address":"Othonos Amalias, Amaliada 272 00, Greece"},{"postal_code":"null","coordinates":{"lng":"23.8092","lat":"38.0635"},"bank":"empty","address":"Leof. Kifisias 219, Marousi 151 24, Greece"},{"postal_code":"null","coordinates":{"lng":"23.8088","lat":"38.0539"},"bank":"empty","address":"Vasilissis Sofias 26, Marousi 151 24, Greece"},{"postal_code":"null","coordinates":{"lng":"22.9251","lat":"40.6584"},"bank":"empty","address":"Leof. 28is Oktovriou 133, Ampelokipi 561 21, Greece"},{"postal_code":"null","coordinates":{"lng":"23.7638","lat":"37.989"},"bank":"empty","address":"Leof. Kifisias 41, Athina 115 23, Greece"},{"postal_code":"null","coordinates":{"lng":"21.6796","lat":"40.6906"},"bank":"empty","address":"Pl. Agoras, Aminteo 532 00, Greece"},{"postal_code":"null","coordinates":{"lng":"23.7027","lat":"37.9302"},"bank":"empty","address":"Areos 94, Paleo Faliro 175 63, Greece"},{"postal_code":"null","coordinates":{"lng":"22.3802","lat":"38.5257"},"bank":"empty","address":"Karaiskaki 11-17, Amfissa 331 00, Greece"},{"postal_code":"null","coordinates":{"lng":"23.9497","lat":"37.735"},"bank":"empty","address":"Leof. Karamanli 15-19, Anavissos 190 13, Greece"},{"postal_code":"null","coordinates":{"lng":"22.9397","lat":"40.6399"},"bank":"empty","address":"Adigonidon 17, Thessaloniki 546 30, Greece"},{"postal_code":"null","coordinates":{"lng":"23.7654","lat":"37.8702"},"bank":"empty","address":"Iliou 25-27, Glifada 166 74, Greece"},{"postal_code":"null","coordinates":{"lng":"22.929","lat":"40.6732"},"bank":"empty","address":"Sina 15, Stavroupoli 564 31, Greece"},{"postal_code":"null","coordinates":{"lng":"23.7049","lat":"38.0754"},"bank":"empty","address":"Filis 83, Ano Liosia 133 42, Greece"},{"postal_code":"null","coordinates":{"lng":"23.716","lat":"37.9413"},"bank":"empty","address":"Artakis 92, Nea Smirni 171 23, Greece"},{"postal_code":"null","coordinates":{"lng":"23.7361","lat":"38.0228"},"bank":"empty","address":"Patision 380, Athina 111 41, Greece"},{"postal_code":"null","coordinates":{"lng":"22.7281","lat":"37.6351"},"bank":"empty","address":"Vasileos Georgiou V, Argos 212 00, Greece"},{"postal_code":"null","coordinates":{"lng":"20.4895","lat":"38.1774"},"bank":"empty","address":"Ioannou Metaxa 26, Argostoli 281 00, Greece"},{"postal_code":"null","coordinates":{"lng":"22.7296","lat":"37.6349"},"bank":"empty","address":"Kopah 1, Argos 212 00, Greece"},{"postal_code":"null","coordinates":{"lng":"23.7515","lat":"37.9058"},"bank":"empty","address":"Alexioupoleos 50-54, Argiroupoli 164 52, Greece"},{"postal_code":"null","coordinates":{"lng":"23.7501","lat":"37.9109"},"bank":"empty","address":"Ilektroupoleos 45A, Argiroupoli 164 51, Greece"},{"postal_code":"null","coordinates":{"lng":"22.0623","lat":"40.9759"},"bank":"empty","address":"Andrianomachon, Aridea 584 00, Greece"},{"postal_code":"null","coordinates":{"lng":"22.9573","lat":"40.629"},"bank":"empty","address":"Egnatia 133, Thessaloniki 546 36, Greece"},{"postal_code":"null","coordinates":{"lng":"25.2647","lat":"35.1499"},"bank":"empty","address":"Epar.Od. Kallonis - Gdochia 49, Arkalochori 703 00, Greece"},{"postal_code":"null","coordinates":{"lng":"20.9986","lat":"39.157"},"bank":"empty","address":"Periferiaki Artas 39-41, Arta 471 00, Greece"},{"postal_code":"null","coordinates":{"lng":"20.9827","lat":"39.1603"},"bank":"empty","address":"El. Venizelou 1-7, Arta 471 00, Greece"},{"postal_code":"null","coordinates":{"lng":"20.9835","lat":"39.1616"},"bank":"empty","address":"Pirrou 9-19, Arta 471 00, Greece"},{"postal_code":"null","coordinates":{"lng":"24.0083","lat":"37.9717"},"bank":"empty","address":"Leof. Artemidos 5, Artemis 190 16, Greece"},{"postal_code":"null","coordinates":{"lng":"23.5867","lat":"38.0507"},"bank":"empty","address":"Leof. Dimokratias 84, Aspropirgos 193 00, Greece"},{"postal_code":"null","coordinates":{"lng":"22.7227","lat":"37.4044"},"bank":"empty","address":"Mattheou, Astros 220 01, Greece"},{"postal_code":"null","coordinates":{"lng":"22.9973","lat":"38.6541"},"bank":"empty","address":"Nik. Avraam, Atalanti 352 00, Greece"},{"postal_code":"null","coordinates":{"lng":"21.3654","lat":"38.0328"},"bank":"empty","address":"Archeas Olimpias, Varda 270 52, Greece"},{"postal_code":"null","coordinates":{"lng":"23.8019","lat":"37.8335"},"bank":"empty","address":"Leof. Varis, Vari 166 72, Greece"},{"postal_code":"null","coordinates":{"lng":"23.803","lat":"37.8194"},"bank":"empty","address":"Xeniou Dios 2-4, Vari 166 72, Greece"},{"postal_code":"null","coordinates":{"lng":"22.9387","lat":"40.6368"},"bank":"empty","address":"Vasileos Irakleiou 1-5, Thessaloniki 546 25, Greece"},{"postal_code":"null","coordinates":{"lng":"22.9556","lat":"40.5981"},"bank":"empty","address":"Leof. Vasilissis Olgas 201, Thessaloniki 546 46, Greece"},{"postal_code":"null","coordinates":{"lng":"24.1477","lat":"41.1499"},"bank":"empty","address":"Verginas 308, Drama 661 00, Greece"},{"postal_code":"null","coordinates":{"lng":"22.205","lat":"40.5238"},"bank":"empty","address":"Venizelou 1-3, Veria 591 32, Greece"},{"postal_code":"null","coordinates":{"lng":"22.2066","lat":"40.5265"},"bank":"empty","address":"P. Mela 13-15, Veria 591 32, Greece"},{"postal_code":"null","coordinates":{"lng":"25.1762","lat":"35.3195"},"bank":"empty","address":"Odos S, Iraklio 715 00, Greece"},{"postal_code":"null","coordinates":{"lng":"22.9461","lat":"39.3601"},"bank":"empty","address":"Iasonos 70, Volos 382 21, Greece"},{"postal_code":"null","coordinates":{"lng":"22.9461","lat":"39.3601"},"bank":"empty","address":"Iasonos 70, Volos 382 21, Greece"},{"postal_code":"null","coordinates":{"lng":"22.9443","lat":"39.3611"},"bank":"empty","address":"Iasonos 41, Volos 383 33, Greece"},{"postal_code":"null","coordinates":{"lng":"23.7673","lat":"37.8396"},"bank":"empty","address":"Digeni 18, Voula 166 73, Greece"},{"postal_code":"null","coordinates":{"lng":"22.9643","lat":"40.5994"},"bank":"empty","address":"Leof. Kon\/nou Karamanli 170, Thessaloniki 542 48, Greece"},{"postal_code":"null","coordinates":{"lng":"22.8014","lat":"37.9387"},"bank":"empty","address":"El. Venizelou, Zevgolatio 200 01, Greece"},{"postal_code":"null","coordinates":{"lng":"23.8326","lat":"38.0412"},"bank":"empty","address":"Mpakogianni 2, Vrilissia 152 35, Greece"},{"postal_code":"null","coordinates":{"lng":"23.7525","lat":"37.9585"},"bank":"empty","address":"Chimarra 18-20, Vironas 162 32, Greece"},{"postal_code":"null","coordinates":{"lng":"23.7299","lat":"37.9864"},"bank":"empty","address":"28is Oktovriou 27, Athina 104 32, Greece"},{"postal_code":"null","coordinates":{"lng":"21.7416","lat":"38.2296"},"bank":"empty","address":"Leof. Geor. Papandreou 100-102, Patra 263 32, Greece"},{"postal_code":"null","coordinates":{"lng":"23.7558","lat":"38.0184"},"bank":"empty","address":"Leof. Veikou 48, Galatsi 111 47, Greece"},{"postal_code":"null","coordinates":{"lng":"23.7528","lat":"38.0121"},"bank":"empty","address":"Agias Glikerias 7, Galatsi 111 47, Greece"},{"postal_code":"null","coordinates":{"lng":"23.7535","lat":"38.0132"},"bank":"empty","address":"Leof. Veikou 2-4, Galatsi 111 46, Greece"},{"postal_code":"null","coordinates":{"lng":"21.2565","lat":"37.8536"},"bank":"empty","address":"Kourvitsianou, Gastouni 273 00, Greece"},{"postal_code":"null","coordinates":{"lng":"23.8602","lat":"38.0071"},"bank":"empty","address":"Leof. Marathonos 124-131, Gerakas 153 44, Greece"},{"postal_code":"null","coordinates":{"lng":"22.4103","lat":"40.7909"},"bank":"empty","address":"G. Kougioumtzidi 15, Pella 581 00, Greece"},{"postal_code":"null","coordinates":{"lng":"22.4104","lat":"40.79"},"bank":"empty","address":"Papadopoulou 2-6, Giannitsa 581 00, Greece"},{"postal_code":"null","coordinates":{"lng":"25.1069","lat":"35.3263"},"bank":"empty","address":"EO Irakliou Faistou 41, Xeropotamos 713 04, Greece"},{"postal_code":"null","coordinates":{"lng":"23.7468","lat":"37.9929"},"bank":"empty","address":"Ioannou Varvaki 48, Athina 114 74, Greece"},{"postal_code":"null","coordinates":{"lng":"23.7589","lat":"37.8717"},"bank":"empty","address":"Leof. Vouliagmenis 85, Glifada 166 74, Greece"},{"postal_code":"null","coordinates":{"lng":"23.7474","lat":"37.8629"},"bank":"empty","address":"Leof. Posidonos 67, Glifada 166 75, Greece"},{"postal_code":"null","coordinates":{"lng":"23.7489","lat":"37.8629"},"bank":"empty","address":"Lazaraki 6, Glifada 166 75, Greece"},{"postal_code":"null","coordinates":{"lng":"23.7681","lat":"37.9831"},"bank":"empty","address":"Papadiamantopoulou 140-142, Zografou 157 73, Greece"},{"postal_code":"null","coordinates":{"lng":"20.8362","lat":"39.6818"},"bank":"empty","address":"Leof. Grammou 29, Ioannina 454 45, Greece"},{"postal_code":"null","coordinates":{"lng":"21.4301","lat":"40.0843"},"bank":"empty","address":"Taliadouri 23-29, Grevena 511 00, Greece"},{"postal_code":"null","coordinates":{"lng":"21.4388","lat":"40.0858"},"bank":"empty","address":"Taliadouri, Grevena 511 00, Greece"},{"postal_code":"null","coordinates":{"lng":"23.7471","lat":"37.9894"},"bank":"empty","address":"Leonida Drosi 2, Athina 114 74, Greece"},{"postal_code":"null","coordinates":{"lng":"22.5645","lat":"36.7603"},"bank":"empty","address":"Archeou Theatrou 2, Githio 232 00, Greece"},{"postal_code":"null","coordinates":{"lng":"23.737","lat":"37.9497"},"bank":"empty","address":"Averof 52-64, Dafni 172 35, Greece"},{"postal_code":"null","coordinates":{"lng":"22.953","lat":"40.6237"},"bank":"empty","address":"Leof. Vasileos Georgiou, Thessaloniki 546 40, Greece"},{"postal_code":"null","coordinates":{"lng":"23.5504","lat":"41.0901"},"bank":"empty","address":"Tsalopoulou 2, Serres 621 22, Greece"},{"postal_code":"null","coordinates":{"lng":"25.4024","lat":"41.1203"},"bank":"empty","address":"Filikis Eterias 44, Komotini 691 00, Greece"},{"postal_code":"null","coordinates":{"lng":"22.946","lat":"40.6307"},"bank":"empty","address":"Tsimiski 80, Thessaloniki 546 22, Greece"},{"postal_code":"null","coordinates":{"lng":"26.4942","lat":"41.3497"},"bank":"empty","address":"El. Venizelou 2, Didimoticho 683 00, Greece"},{"postal_code":"null","coordinates":{"lng":"24.1483","lat":"41.1452"},"bank":"empty","address":"Diikitiriou 5, Drama 661 00, Greece"},{"postal_code":"null","coordinates":{"lng":"24.148","lat":"41.1469"},"bank":"empty","address":"Ipeirou 23, Drama 661 00, Greece"},{"postal_code":"null","coordinates":{"lng":"23.6292","lat":"37.9489"},"bank":"empty","address":"Chatzopoulou 2, Drapetsona 186 48, Greece"},{"postal_code":"null","coordinates":{"lng":"23.8581","lat":"38.1202"},"bank":"empty","address":"Leof. Thiseos, Drosia 145 72, Greece"},{"postal_code":"null","coordinates":{"lng":"20.8485","lat":"39.6536"},"bank":"empty","address":"Leof. Dodonis 115, Ioannina 452 21, Greece"},{"postal_code":"null","coordinates":{"lng":"25.1335","lat":"35.3381"},"bank":"empty","address":"Evans 18, Iraklio 712 01, Greece"},{"postal_code":"null","coordinates":{"lng":"22.0493","lat":"40.8011"},"bank":"empty","address":"Aristotelous 12, Edessa 582 00, Greece"},{"postal_code":"null","coordinates":{"lng":"22.9657","lat":"40.582"},"bank":"empty","address":"El. Venizelou, Kalamaria 551 33, Greece"},{"postal_code":"null","coordinates":{"lng":"23.6461","lat":"37.9461"},"bank":"empty","address":"Eth. Antistaseos 19-29, Pireas 185 31, Greece"},{"postal_code":"null","coordinates":{"lng":"22.9503","lat":"40.6281"},"bank":"empty","address":"Tsimiski 132, Thessaloniki 546 21, Greece"},{"postal_code":"null","coordinates":{"lng":"28.2245","lat":"36.433"},"bank":"empty","address":"Eth. Antistasis 26, Rodos 851 00, Greece"},{"postal_code":"null","coordinates":{"lng":"23.7983","lat":"38.0979"},"bank":"empty","address":"Par. A\/D PATHE, Kifisia 145 64, Greece"},{"postal_code":"null","coordinates":{"lng":"24.869","lat":"41.1155"},"bank":"empty","address":"Unnamed Road, Xanthi 671 00, Greece"},{"postal_code":"null","coordinates":{"lng":"22.1887","lat":"39.8936"},"bank":"empty","address":"6is Oktovriou 84, Elassona 402 00, Greece"},{"postal_code":"null","coordinates":{"lng":"22.8947","lat":"40.6676"},"bank":"empty","address":"Andrea Papandreou 20-26, Eleftherio Kordelio 563 34, Greece"},{"postal_code":"null","coordinates":{"lng":"24.2524","lat":"40.9126"},"bank":"empty","address":"Thrakis, Eleftheroupoli 641 00, Greece"},{"postal_code":"null","coordinates":{"lng":"23.5427","lat":"38.0435"},"bank":"empty","address":"lera Odos 19, Elefsina 192 00, Greece"},{"postal_code":"null","coordinates":{"lng":"23.5408","lat":"38.0434"},"bank":"empty","address":"Nikoaidou 51-53, Elefsina 192 00, Greece"},{"postal_code":"null","coordinates":{"lng":"23.7599","lat":"37.8925"},"bank":"empty","address":"Leof. Iasonidou 77-83, Elliniko 167 77, Greece"},{"postal_code":"null","coordinates":{"lng":"21.7431","lat":"38.2608"},"bank":"empty","address":"Ellinos Stratiotou 106, Patra 264 41, Greece"},{"postal_code":"null","coordinates":{"lng":"24.0225","lat":"35.5128"},"bank":"empty","address":"Str. Tzanakaki 21, Chania 731 34, Greece"},{"postal_code":"null","coordinates":{"lng":"23.7927","lat":"38.3933"},"bank":"empty","address":"Filos Menedimou 50, Eretria 340 08, Greece"},{"postal_code":"null","coordinates":{"lng":"23.6513","lat":"37.9428"},"bank":"empty","address":"Grigoriou Lampraki 110, Pireas 185 32, Greece"},{"postal_code":"null","coordinates":{"lng":"22.9084","lat":"40.6693"},"bank":"empty","address":"28is Oktovriou 29-33, Evosmos 562 24, Greece"},{"postal_code":"null","coordinates":{"lng":"22.9117","lat":"40.6685"},"bank":"empty","address":"Meg. Alexandrou 104-106, Evosmos 562 24, Greece"},{"postal_code":"null","coordinates":{"lng":"20.8988","lat":"37.7853"},"bank":"empty","address":"Lomvardou 16, Zakinthos 291 00, Greece"},{"postal_code":"null","coordinates":{"lng":"20.8985","lat":"37.7869"},"bank":"empty","address":"Desila, Zakinthos 291 00, Greece"},{"postal_code":"null","coordinates":{"lng":"23.7739","lat":"37.9768"},"bank":"empty","address":"Leof. Stratarchou Alexandrou Papagou 112-116, Zografou 157 72, Greece"},{"postal_code":"null","coordinates":{"lng":"20.2639","lat":"39.498"},"bank":"empty","address":"Ag. Apostolon, Igoumenitsa 461 00, Greece"},{"postal_code":"null","coordinates":{"lng":"23.75","lat":"37.9398"},"bank":"empty","address":"Leof. Vitsi 5, Ilioupoli 163 46, Greece"},{"postal_code":"null","coordinates":{"lng":"23.7563","lat":"37.9391"},"bank":"empty","address":"Posidonos 16, Ilioupoli 163 45, Greece"},{"postal_code":"null","coordinates":{"lng":"23.2844","lat":"41.1821"},"bank":"empty","address":"El. Venizelou 36, Iraklia 624 00, Greece"},{"postal_code":"null","coordinates":{"lng":"25.1385","lat":"35.3271"},"bank":"empty","address":"Leof. Eth. Antistaseos 2, Iraklio 713 06, Greece"},{"postal_code":"null","coordinates":{"lng":"25.1237","lat":"35.339"},"bank":"empty","address":"Archiepiskopou Makariou 22, Iraklio 712 02, Greece"},{"postal_code":"null","coordinates":{"lng":"23.7427","lat":"37.9767"},"bank":"empty","address":"Irodotou 14, Athina 106 75, Greece"},{"postal_code":"null","coordinates":{"lng":"22.421","lat":"39.6314"},"bank":"empty","address":"Ir. Politechniou 109-115, Larisa 412 23, Greece"},{"postal_code":"null","coordinates":{"lng":"23.0193","lat":"40.547"},"bank":"empty","address":"Agiou Nikolaou 38, Thermi 570 01, Greece"},{"postal_code":"null","coordinates":{"lng":"24.8885","lat":"41.1392"},"bank":"empty","address":"Michail Karaoli 26, Xanthi 671 00, Greece"},{"postal_code":"null","coordinates":{"lng":"22.9423","lat":"40.6343"},"bank":"empty","address":"Vasileos Irakleiou 37-39, Thessaloniki 546 24, Greece"},{"postal_code":"null","coordinates":{"lng":"23.318","lat":"38.3203"},"bank":"empty","address":"Pindarou 68, Thiva 322 00, Greece"},{"postal_code":"null","coordinates":{"lng":"23.3181","lat":"38.3213"},"bank":"empty","address":"Pindarou 86, Thiva 322 00, Greece"},{"postal_code":"null","coordinates":{"lng":"25.4323","lat":"36.4175"},"bank":"empty","address":"Dekigala 40c, Thira 847 00, Greece"},{"postal_code":"null","coordinates":{"lng":"22.9376","lat":"40.6341"},"bank":"empty","address":"Ionos Dragoumi 5, Thessaloniki 546 25, Greece"},{"postal_code":"null","coordinates":{"lng":"25.7387","lat":"35.0082"},"bank":"empty","address":"Dimokratias 3, Ierapetra 722 00, Greece"},{"postal_code":"null","coordinates":{"lng":"25.7396","lat":"35.0096"},"bank":"empty","address":"Omirias 5, Ierapetra 722 00, Greece"},{"postal_code":"null","coordinates":{"lng":"23.673","lat":"37.9946"},"bank":"empty","address":"Evaggelistrias 28, Egaleo 122 44, Greece"},{"postal_code":"null","coordinates":{"lng":"23.8755","lat":"40.3965"},"bank":"empty","address":"Vasileos Georgiou, Ierissos 630 75, Greece"},{"postal_code":"null","coordinates":{"lng":"23.7062","lat":"38.0311"},"bank":"empty","address":"Danaon 65-67, Ilion 131 22, Greece"},{"postal_code":"null","coordinates":{"lng":"23.7094","lat":"38.032"},"bank":"empty","address":"Protesilaou 65, Ilion 131 22, Greece"},{"postal_code":"null","coordinates":{"lng":"23.761","lat":"37.9763"},"bank":"empty","address":"Grigoriou Afxentiou 28-32, Zografou 157 71, Greece"},{"postal_code":"null","coordinates":{"lng":"23.7393","lat":"37.9846"},"bank":"empty","address":"Ippokratous 80, Athina 106 80, Greece"},{"postal_code":"null","coordinates":{"lng":"23.1505","lat":"38.9526"},"bank":"empty","address":"Strimmenou, Istiea 342 00, Greece"},{"postal_code":"null","coordinates":{"lng":"23.7508","lat":"38.0506"},"bank":"empty","address":"Ifigenias 3, Metamorfosi 144 51, Greece"},{"postal_code":"null","coordinates":{"lng":"20.8559","lat":"39.668"},"bank":"empty","address":"Averof 22, Ioannina 452 21, Greece"},{"postal_code":"null","coordinates":{"lng":"20.8521","lat":"39.6688"},"bank":"empty","address":"Dagkli 7-9, Ioannina 454 44, Greece"},{"postal_code":"null","coordinates":{"lng":"22.9553","lat":"39.3716"},"bank":"empty","address":"Iolkou 177, Volos, Greece"},{"postal_code":"null","coordinates":{"lng":"22.8586","lat":"40.6844"},"bank":"empty","address":"K.Karamanli 32, Delta 570 08, Greece"},{"postal_code":"null","coordinates":{"lng":"24.4032","lat":"40.9362"},"bank":"empty","address":"Erithrou Stavrou 50, Kavala 654 03, Greece"},{"postal_code":"null","coordinates":{"lng":"23.7574","lat":"37.9687"},"bank":"empty","address":"Leof. Eth. Antistaseos 57, Kesariani 161 21, Greece"},{"postal_code":"null","coordinates":{"lng":"23.7089","lat":"37.9134"},"bank":"empty","address":"Leof. Posidonos 23-25, Alimos 174 55, Greece"},{"postal_code":"null","coordinates":{"lng":"22.953","lat":"40.5845"},"bank":"empty","address":"Pontou 62, Kalamaria 551 31, Greece"},{"postal_code":"null","coordinates":{"lng":"22.1106","lat":"37.0384"},"bank":"empty","address":"Antonopoulou 9-15, Kalamata 241 00, Greece"},{"postal_code":"null","coordinates":{"lng":"22.1113","lat":"37.0386"},"bank":"empty","address":"Aristomenous 45-47, Kalamata 241 00, Greece"},{"postal_code":"null","coordinates":{"lng":"22.1103","lat":"37.0389"},"bank":"empty","address":"Mitropetrova 10, Kalamata 241 00, Greece"},{"postal_code":"null","coordinates":{"lng":"21.6247","lat":"39.7062"},"bank":"empty","address":"Geor. Masouta 2-8, Kalampaka 422 00, Greece"},{"postal_code":"null","coordinates":{"lng":"23.7047","lat":"37.9536"},"bank":"empty","address":"Sintagmatarchou Davaki 50, Kallithea 176 72, Greece"},{"postal_code":"null","coordinates":{"lng":"23.7017","lat":"37.9556"},"bank":"empty","address":"Leof. El. Venizelou 163, Kallithea 176 72, Greece"},{"postal_code":"null","coordinates":{"lng":"24.4894","lat":"35.3649"},"bank":"empty","address":"Konstantinoupoleos 15, Rethymno 741 00, Greece"},{"postal_code":"null","coordinates":{"lng":"23.635","lat":"37.9305"},"bank":"empty","address":"Filikis Eterias 46, Pireas 185 39, Greece"},{"postal_code":"null","coordinates":{"lng":"26.2072","lat":"39.2327"},"bank":"empty","address":"Epar.Od. Kallonis-Eresou, Kalloni 811 07, Greece"},{"postal_code":"null","coordinates":{"lng":"26.9818","lat":"36.9495"},"bank":"empty","address":"Dodekanisou, Kalimnos 852 00, Greece"},{"postal_code":"null","coordinates":{"lng":"23.7137","lat":"38.0587"},"bank":"empty","address":"Vasileos Georgiou V 1-5, Kamatero 134 51, Greece"},{"postal_code":"null","coordinates":{"lng":"23.6554","lat":"37.9529"},"bank":"empty","address":"Valtetsiou 29, Pireas 185 40, Greece"},{"postal_code":"null","coordinates":{"lng":"23.8761","lat":"38.2147"},"bank":"empty","address":"Geor. Karaiskaki 29, Kapandriti 190 14, Greece"},{"postal_code":"null","coordinates":{"lng":"23.7519","lat":"38.0945"},"bank":"empty","address":"Leof. Kon\/nou Karamanli 1-7, Acharnes 136 72, Greece"},{"postal_code":"null","coordinates":{"lng":"21.7981","lat":"40.2993"},"bank":"empty","address":"11is Oktovriou 34, Kozani 501 00, Greece"},{"postal_code":"null","coordinates":{"lng":"21.9229","lat":"39.3641"},"bank":"empty","address":"Nik. Plastira 21, Karditsa 431 00, Greece"},{"postal_code":"null","coordinates":{"lng":"21.9225","lat":"39.3653"},"bank":"empty","address":"Valvi 39, Karditsa 431 00, Greece"},{"postal_code":"null","coordinates":{"lng":"26.7063","lat":"37.7934"},"bank":"empty","address":"Ippokrati Zaimi, Neo Karlovasi 832 00, Greece"},{"postal_code":"null","coordinates":{"lng":"21.7934","lat":"38.915"},"bank":"empty","address":"Giorgou Tsitsar, Karpenisi 361 00, Greece"},{"postal_code":"null","coordinates":{"lng":"23.4121","lat":"40.0489"},"bank":"empty","address":"28is Oktovriou, Kassandria 630 77, Greece"},{"postal_code":"null","coordinates":{"lng":"21.2616","lat":"40.5223"},"bank":"empty","address":"Grammou 8, Kastoria 521 00, Greece"},{"postal_code":"null","coordinates":{"lng":"21.2634","lat":"40.5216"},"bank":"empty","address":"3is Septemvriou 12, Kastoria 521 00, Greece"},{"postal_code":"null","coordinates":{"lng":"22.5096","lat":"40.2704"},"bank":"empty","address":"25is Martiou 7, Katerini 601 00, Greece"},{"postal_code":"null","coordinates":{"lng":"22.5104","lat":"40.2699"},"bank":"empty","address":"Ionos Dragoumi 10, Katerini 601 00, Greece"},{"postal_code":"null","coordinates":{"lng":"22.9382","lat":"40.6353"},"bank":"empty","address":"Tsimiski 2-4, Thessaloniki 546 25, Greece"},{"postal_code":"null","coordinates":{"lng":"21.5518","lat":"38.1452"},"bank":"empty","address":"Araxou 10, Kato Achaia 252 00, Greece"},{"postal_code":"null","coordinates":{"lng":"22.9704","lat":"40.6078"},"bank":"empty","address":"Papafi 201, Thessaloniki 544 53, Greece"},{"postal_code":"null","coordinates":{"lng":"22.1158","lat":"37.0467"},"bank":"empty","address":"Spartis 31, Kalamata 241 00, Greece"},{"postal_code":"null","coordinates":{"lng":"21.4357","lat":"37.6729"},"bank":"empty","address":"Manolopoulou 18, Pirgos 271 00, Greece"},{"postal_code":"null","coordinates":{"lng":"24.4108","lat":"40.9368"},"bank":"empty","address":"El. Venizelou 27, Kavala 653 02, Greece"},{"postal_code":"null","coordinates":{"lng":"23.7333","lat":"37.9797"},"bank":"empty","address":"Panepistimiou 25-27, Athina 105 64, Greece"},{"postal_code":"null","coordinates":{"lng":"22.9405","lat":"40.6372"},"bank":"empty","address":"Valaoritou 37, Thessaloniki 546 25, Greece"},{"postal_code":"null","coordinates":{"lng":"23.627","lat":"37.9577"},"bank":"empty","address":"Leof. Dimokratias 22-24, Keratsini 187 56, Greece"},{"postal_code":"null","coordinates":{"lng":"23.6273","lat":"37.9643"},"bank":"empty","address":"Leof. Salaminos 60, Keratsini 187 57, Greece"},{"postal_code":"null","coordinates":{"lng":"19.8985","lat":"39.6232"},"bank":"empty","address":"Palaiokastritsas 62, Kerkira 491 00, Greece"},{"postal_code":"null","coordinates":{"lng":"19.9191","lat":"39.6211"},"bank":"empty","address":"Samara, Kerkira 491 00, Greece"},{"postal_code":"null","coordinates":{"lng":"19.9189","lat":"39.6258"},"bank":"empty","address":"Kon\/nou Zavitsianou 11, Kerkira 491 00, Greece"},{"postal_code":"null","coordinates":{"lng":"23.8125","lat":"38.0735"},"bank":"empty","address":"EO83 246b, Kifisia 145 61, Greece"},{"postal_code":"null","coordinates":{"lng":"22.7517","lat":"38.0111"},"bank":"empty","address":"Eth. Antistasis 27, Kiato 202 00, Greece"},{"postal_code":"null","coordinates":{"lng":"22.8736","lat":"40.9973"},"bank":"empty","address":"Agiou Georgiou 24, Kilkis 611 00, Greece"},{"postal_code":"null","coordinates":{"lng":"22.8706","lat":"40.9936"},"bank":"empty","address":"Salaminos, Kilkis 611 00, Greece"},{"postal_code":"null","coordinates":{"lng":"23.6541","lat":"35.4944"},"bank":"empty","address":"Ir. Politechniou 136, Kissamos 734 00, Greece"},{"postal_code":"null","coordinates":{"lng":"25.1509","lat":"35.3089"},"bank":"empty","address":"Evrialis, Iraklio 714 09, Greece"},{"postal_code":"null","coordinates":{"lng":"21.7898","lat":"40.3004"},"bank":"empty","address":"Lioufi 2, Kozani 501 00, Greece"},{"postal_code":"null","coordinates":{"lng":"21.795","lat":"40.2992"},"bank":"empty","address":"Patriarchou Fotiou 7, Kozani 501 00, Greece"},{"postal_code":"null","coordinates":{"lng":"23.735","lat":"38.0085"},"bank":"empty","address":"Patision 231, Athina 112 53, Greece"},{"postal_code":"null","coordinates":{"lng":"25.4058","lat":"41.1169"},"bank":"empty","address":"Dim. Mpletsa 1, Komotini 691 00, Greece"},{"postal_code":"null","coordinates":{"lng":"25.4073","lat":"41.1196"},"bank":"empty","address":"Leof. Ir. 1940 1941 6, Komotini 691 00, Greece"},{"postal_code":"null","coordinates":{"lng":"23.7325","lat":"37.9803"},"bank":"empty","address":"Korai 5, Athina 105 64, Greece"},{"postal_code":"null","coordinates":{"lng":"22.9304","lat":"37.9396"},"bank":"empty","address":"Koliatsou 61, Korinthos 201 00, Greece"},{"postal_code":"null","coordinates":{"lng":"22.9326","lat":"37.9401"},"bank":"empty","address":"Kolokotroni 17, Korinthos 201 00, Greece"},{"postal_code":"null","coordinates":{"lng":"22.9308","lat":"37.9422"},"bank":"empty","address":"Damaskinou 79, Korinthos 201 00, Greece"},{"postal_code":"null","coordinates":{"lng":"23.6558","lat":"37.9806"},"bank":"empty","address":"Grigoriou Lampraki 140, Koridallos 181 21, Greece"},{"postal_code":"null","coordinates":{"lng":"23.8725","lat":"37.9013"},"bank":"empty","address":"Leof. Vasileos Konstantinou 144-150, Koropi 194 00, Greece"},{"postal_code":"null","coordinates":{"lng":"23.8726","lat":"37.9046"},"bank":"empty","address":"Leof. Vasileos Konstantinou 108-112, Koropi 194 00, Greece"},{"postal_code":"null","coordinates":{"lng":"22.5769","lat":"40.7796"},"bank":"empty","address":"Eth. Antistaseos 43, Koufalia 571 00, Greece"},{"postal_code":"null","coordinates":{"lng":"23.1636","lat":"37.3782"},"bank":"empty","address":"Agii Anargiri 28, Kranidi 213 00, Greece"},{"postal_code":"null","coordinates":{"lng":"21.668","lat":"37.2513"},"bank":"empty","address":"El. Venizelou, Kiparissia 245 00, Greece"},{"postal_code":"null","coordinates":{"lng":"23.7405","lat":"37.998"},"bank":"empty","address":"Kerkiras 51, Athina 113 62, Greece"},{"postal_code":"null","coordinates":{"lng":"27.2756","lat":"36.8899"},"bank":"empty","address":"Epar.Od. Ko-Kefalou 322, Kos 853 00, Greece"},{"postal_code":"null","coordinates":{"lng":"27.2925","lat":"36.8919"},"bank":"empty","address":"Korai 8, Kos 853 00, Greece"},{"postal_code":"null","coordinates":{"lng":"23.7439","lat":"37.9277"},"bank":"empty","address":"Spirou Miliou 2-6, Ag. Dimitrios 173 42, Greece"},{"postal_code":"null","coordinates":{"lng":"23.7074","lat":"37.9877"},"bank":"empty","address":"Mirionou 2-4, Athina 104 41, Greece"},{"postal_code":"null","coordinates":{"lng":"23.0716","lat":"40.747"},"bank":"empty","address":"Loutron 59, Lagkadas 572 00, Greece"},{"postal_code":"null","coordinates":{"lng":"22.4341","lat":"38.8996"},"bank":"empty","address":"Kapodistriou 2, Lamia 351 00, Greece"},{"postal_code":"null","coordinates":{"lng":"22.4344","lat":"38.8998"},"bank":"empty","address":"Kapodistriou 1, Lamia 351 00, Greece"},{"postal_code":"null","coordinates":{"lng":"22.4384","lat":"38.9002"},"bank":"empty","address":"Kapodistriou 36-38, Lamia 351 00, Greece"},{"postal_code":"null","coordinates":{"lng":"23.7506","lat":"38.022"},"bank":"empty","address":"Ersis 2, Galatsi 111 46, Greece"},{"postal_code":"null","coordinates":{"lng":"22.4159","lat":"39.6387"},"bank":"empty","address":"Kiprou 83, Larisa 412 22, Greece"},{"postal_code":"null","coordinates":{"lng":"22.4178","lat":"39.6354"},"bank":"empty","address":"Mandilara 25, Larisa 412 22, Greece"},{"postal_code":"null","coordinates":{"lng":"22.4149","lat":"39.6378"},"bank":"empty","address":"Ionos Dragoumi 3, Larisa 412 22, Greece"},{"postal_code":"null","coordinates":{"lng":"24.055","lat":"37.7114"},"bank":"empty","address":"Agias Paraskevis, Lavrio 195 00, Greece"},{"postal_code":"null","coordinates":{"lng":"22.8908","lat":"40.6579"},"bank":"empty","address":"Lachanagoras, Ampelokipi Menemeni 546 28, Greece"},{"postal_code":"null","coordinates":{"lng":"23.6835","lat":"37.9613"},"bank":"empty","address":"Sintagmatarchou Davaki 2-10, Moschato 183 46, Greece"},{"postal_code":"null","coordinates":{"lng":"22.879","lat":"38.4384"},"bank":"empty","address":"Pesonton Machiton 64, Lev\u00e1dhia 321 00, Greece"},{"postal_code":"null","coordinates":{"lng":"23.7127","lat":"37.9951"},"bank":"empty","address":"Lenorman 180, Athina 104 44, Greece"},{"postal_code":"null","coordinates":{"lng":"20.7082","lat":"38.8319"},"bank":"empty","address":"Golemi, Lefkada 311 00, Greece"},{"postal_code":"null","coordinates":{"lng":"20.7049","lat":"38.831"},"bank":"empty","address":"Fotinou, Lefkada 311 00, Greece"},{"postal_code":"null","coordinates":{"lng":"23.7357","lat":"37.9909"},"bank":"empty","address":"Spirou Trikoupi 60, Athina 114 73, Greece"},{"postal_code":"null","coordinates":{"lng":"23.7565","lat":"37.9873"},"bank":"empty","address":"Leof. Alexandras 170, Athina 115 21, Greece"},{"postal_code":"null","coordinates":{"lng":"23.7565","lat":"37.9873"},"bank":"empty","address":"Leof. Alexandras 170, Athina 115 21, Greece"},{"postal_code":"null","coordinates":{"lng":"25.0603","lat":"39.8775"},"bank":"empty","address":"Kida, Mirina 814 00, Greece"},{"postal_code":"null","coordinates":{"lng":"22.8712","lat":"38.4368"},"bank":"empty","address":"Tzoumagias 2-6, Lev\u00e1dhia 321 00, Greece"},{"postal_code":"null","coordinates":{"lng":"24.5787","lat":"40.6279"},"bank":"empty","address":"Unnamed Road, Limenaria 640 02, Greece"},{"postal_code":"null","coordinates":{"lng":"22.9776","lat":"37.9725"},"bank":"empty","address":"Tompazi, Loutraki 203 00, Greece"},{"postal_code":"null","coordinates":{"lng":"23.6808","lat":"38.0088"},"bank":"empty","address":"Krioneriou 1-3, Peristeri 121 36, Greece"},{"postal_code":"null","coordinates":{"lng":"23.7851","lat":"38.071"},"bank":"empty","address":"Leof. Sofokli Venizelou 53, Likovrisi 141 23, Greece"},{"postal_code":"null","coordinates":{"lng":"21.7318","lat":"38.244"},"bank":"empty","address":"Maizonos 173, Patra 262 22, Greece"},{"postal_code":"null","coordinates":{"lng":"23.7287","lat":"37.9662"},"bank":"empty","address":"Leof. Andrea Siggrou 46, Athina 117 42, Greece"},{"postal_code":"null","coordinates":{"lng":"23.9334","lat":"37.8833"},"bank":"empty","address":"Papakonstantinou 16-20, Markopoulo Mesogeas 190 03, Greece"},{"postal_code":"null","coordinates":{"lng":"23.7293","lat":"37.9886"},"bank":"empty","address":"Marni 11, Athina 104 33, Greece"},{"postal_code":"null","coordinates":{"lng":"22.5078","lat":"40.2711"},"bank":"empty","address":"Meg. Alexandrou 6, Katerini 601 00, Greece"},{"postal_code":"null","coordinates":{"lng":"22.4165","lat":"39.637"},"bank":"empty","address":"Meg. Alexandrou 4, Larisa 412 22, Greece"},{"postal_code":"null","coordinates":{"lng":"23.3453","lat":"37.9961"},"bank":"empty","address":"Mavroukaki 24, Megara 191 00, Greece"},{"postal_code":"null","coordinates":{"lng":"23.8362","lat":"38.0512"},"bank":"empty","address":"Leof. Dimokratias 73, Melissia 151 27, Greece"},{"postal_code":"null","coordinates":{"lng":"23.7376","lat":"38.0813"},"bank":"empty","address":"Dekelias 14, Acharnes 136 73, Greece"},{"postal_code":"null","coordinates":{"lng":"23.7707","lat":"37.9909"},"bank":"empty","address":"Leof. Mesogeion 111, Ampelokipi Menemeni 115 26, Greece"},{"postal_code":"null","coordinates":{"lng":"21.4325","lat":"38.3724"},"bank":"empty","address":"Spirou Moustakli, Mesolongi 302 00, Greece"},{"postal_code":"null","coordinates":{"lng":"22.0079","lat":"37.0508"},"bank":"empty","address":"Politechniou 39, Messini 242 00, Greece"},{"postal_code":"null","coordinates":{"lng":"23.7601","lat":"38.0611"},"bank":"empty","address":"Nikis 13, Metamorfosi 144 52, Greece"},{"postal_code":"null","coordinates":{"lng":"24.4467","lat":"36.7254"},"bank":"empty","address":"Adama-Zephyria, Adamas 848 01, Greece"},{"postal_code":"null","coordinates":{"lng":"23.7636","lat":"37.9843"},"bank":"empty","address":"Michalakopoulou 157, Athina 115 27, Greece"},{"postal_code":"null","coordinates":{"lng":"24.8799","lat":"35.0496"},"bank":"empty","address":"28is Oktovriou 5, Mires 704 00, Greece"},{"postal_code":"null","coordinates":{"lng":"22.8516","lat":"36.8042"},"bank":"empty","address":"\u0391\u03bd\u03bd\u03c4\u03ad\u03bd\u03b1 \u039d\u03cc\u03c4\u03b9\u03b1\u03c2 \u0395\u03bb\u03bb\u03ac\u03b4\u03b1\u03c2 \u03a1\u03ac\u03b4\u03b9\u03bf, Molai 230 52, Greece"},{"postal_code":"null","coordinates":{"lng":"22.9157","lat":"40.6507"},"bank":"empty","address":"Monastiriou 156, Menemeni 546 28, Greece"},{"postal_code":"null","coordinates":{"lng":"23.6791","lat":"37.9524"},"bank":"empty","address":"Str. Makrigianni 109, Moschato 183 45, Greece"},{"postal_code":"null","coordinates":{"lng":"25.3334","lat":"37.4387"},"bank":"empty","address":"Epar.Od. Mikonou, Mikonos 846 00, Greece"},{"postal_code":"null","coordinates":{"lng":"26.5545","lat":"39.1034"},"bank":"empty","address":"Kavetsou 3, Mitilini 811 00, Greece"},{"postal_code":"null","coordinates":{"lng":"26.5555","lat":"39.1052"},"bank":"empty","address":"P. Kountourioti 15, Mitilini 811 00, Greece"},{"postal_code":"null","coordinates":{"lng":"26.5579","lat":"39.1069"},"bank":"empty","address":"Archipelagous 23, Mitilini 811 00, Greece"},{"postal_code":"null","coordinates":{"lng":"23.8195","lat":"38.0901"},"bank":"empty","address":"Isminis 113, Nea Erithrea 146 71, Greece"},{"postal_code":"null","coordinates":{"lng":"23.8172","lat":"38.0879"},"bank":"empty","address":"Leof. Kifisias 375, Nea Erithrea 146 71, Greece"},{"postal_code":"null","coordinates":{"lng":"22.9501","lat":"40.6838"},"bank":"empty","address":"25is Martiou 13, Efkarpia 564 29, Greece"},{"postal_code":"null","coordinates":{"lng":"25.3844","lat":"37.0993"},"bank":"empty","address":"Leof. Naxou Glinadou Apollona, Naxos 843 00, Greece"},{"postal_code":"null","coordinates":{"lng":"22.07","lat":"40.6306"},"bank":"empty","address":"Vasileos Filippou 1, Naousa 592 00, Greece"},{"postal_code":"null","coordinates":{"lng":"21.831","lat":"38.394"},"bank":"empty","address":"Leof. Tzavela 50, Nafpaktos 303 00, Greece"},{"postal_code":"null","coordinates":{"lng":"21.8332","lat":"38.3933"},"bank":"empty","address":"Psarrou, Nafpaktos 303 00, Greece"},{"postal_code":"null","coordinates":{"lng":"22.8067","lat":"37.5719"},"bank":"empty","address":"Argous 54, Nafplio 211 00, Greece"},{"postal_code":"null","coordinates":{"lng":"22.8016","lat":"37.5672"},"bank":"empty","address":"Polizoidi 4, Nafplio 211 00, Greece"},{"postal_code":"null","coordinates":{"lng":"23.7375","lat":"38.0332"},"bank":"empty","address":"Leof. Dekelias 83, Nea Filadelfia 143 41, Greece"},{"postal_code":"null","coordinates":{"lng":"22.9251","lat":"39.3658"},"bank":"empty","address":"Larisis 146, Volos 383 34, Greece"},{"postal_code":"null","coordinates":{"lng":"22.9442","lat":"40.6512"},"bank":"empty","address":"Anatolikis Romilias 35, Neapoli 567 28, Greece"},{"postal_code":"null","coordinates":{"lng":"23.6369","lat":"38.5114"},"bank":"empty","address":"Eth. Antistaseos 33, Nea Artaki 346 00, Greece"},{"postal_code":"null","coordinates":{"lng":"23.7513","lat":"38.0412"},"bank":"empty","address":"Leof. Irakliou 199, Nea Ionia 142 31, Greece"},{"postal_code":"null","coordinates":{"lng":"23.7593","lat":"38.0469"},"bank":"empty","address":"Leof. Irakliou 293, Nea Ionia 142 31, Greece"},{"postal_code":"null","coordinates":{"lng":"22.9355","lat":"39.371"},"bank":"empty","address":"Leof. Irinis 16-26, Nea Ionia 384 46, Greece"},{"postal_code":"null","coordinates":{"lng":"22.9576","lat":"40.5722"},"bank":"empty","address":"Smirnis 34, Kalamaria 551 32, Greece"},{"postal_code":"null","coordinates":{"lng":"23.9775","lat":"38.0849"},"bank":"empty","address":"Leof. Marathonos 139, Nea Makri 190 05, Greece"},{"postal_code":"null","coordinates":{"lng":"22.9233","lat":"40.6769"},"bank":"empty","address":"Ithakis, Evosmos 562 24, Greece"},{"postal_code":"null","coordinates":{"lng":"23.713","lat":"37.9473"},"bank":"empty","address":"25is Martiou 19, Nea Smirni 171 21, Greece"},{"postal_code":"null","coordinates":{"lng":"23.736","lat":"37.9568"},"bank":"empty","address":"Leof. Geor. Kafantari 5-7, Athina 116 31, Greece"},{"postal_code":"null","coordinates":{"lng":"23.766","lat":"38.046"},"bank":"empty","address":"Marinou Antipa 1-3, Iraklio 141 21, Greece"},{"postal_code":"null","coordinates":{"lng":"23.7296","lat":"37.9579"},"bank":"empty","address":"Ilia Iliou 66, Athina 117 44, Greece"},{"postal_code":"null","coordinates":{"lng":"23.2849","lat":"40.2391"},"bank":"empty","address":"Kiprou 64, Nea Moudania 632 00, Greece"},{"postal_code":"null","coordinates":{"lng":"23.2824","lat":"40.2393"},"bank":"empty","address":"Agiou Georgiou 26, Nea Moudania 632 00, Greece"},{"postal_code":"null","coordinates":{"lng":"23.4988","lat":"40.9102"},"bank":"empty","address":"\u03a3\u03c4\u03b1\u03c5\u03c1\u03b9\u03b1\u03bd\u03bf\u03c0\u03bf\u03c5\u03bb\u03bf\u03c5 35, Nigrita 622 00, Greece"},{"postal_code":"null","coordinates":{"lng":"23.6533","lat":"37.9709"},"bank":"empty","address":"Pl. Davaki Pindou 13, Nikea 184 54, Greece"},{"postal_code":"null","coordinates":{"lng":"23.6517","lat":"37.9704"},"bank":"empty","address":"Petrou Ralli 232, Nikea 184 53, Greece"},{"postal_code":"null","coordinates":{"lng":"23.6684","lat":"40.2227"},"bank":"empty","address":"Leof. Sithonias, \u039d\u03b9\u03ba\u03ae\u03c4\u03b7 630 88, Greece"},{"postal_code":"null","coordinates":{"lng":"22.9622","lat":"40.5866"},"bank":"empty","address":"Eth. Antistasis 28-32, Kalamaria 551 33, Greece"},{"postal_code":"null","coordinates":{"lng":"24.8847","lat":"41.1385"},"bank":"empty","address":"Mesologgiou 1, Xanthi 671 00, Greece"},{"postal_code":"null","coordinates":{"lng":"24.89","lat":"41.1373"},"bank":"empty","address":"Michail Karaoli 41, Xanthi 671 00, Greece"},{"postal_code":"null","coordinates":{"lng":"21.737","lat":"38.2473"},"bank":"empty","address":"Korinthou 222, Patra 262 21, Greece"},{"postal_code":"null","coordinates":{"lng":"23.641","lat":"38.3086"},"bank":"empty","address":"A\/D PAThE, Tanagra 320 11, Greece"},{"postal_code":"null","coordinates":{"lng":"23.7144","lat":"37.9456"},"bank":"empty","address":"Omirou 72, Nea Smirni 171 21, Greece"},{"postal_code":"null","coordinates":{"lng":"24.4111","lat":"40.9384"},"bank":"empty","address":"Omonias 83-89, Kavala 653 02, Greece"},{"postal_code":"null","coordinates":{"lng":"26.5324","lat":"41.5038"},"bank":"empty","address":"Konstantinoupoleos 209, Orestiada 682 00, Greece"},{"postal_code":"null","coordinates":{"lng":"26.5322","lat":"41.5023"},"bank":"empty","address":"Konstantinoupoleos 218, Orestiada 682 00, Greece"},{"postal_code":"null","coordinates":{"lng":"23.7516","lat":"37.9686"},"bank":"empty","address":"Imittou 72, Athina 116 34, Greece"},{"postal_code":"null","coordinates":{"lng":"23.7473","lat":"37.9676"},"bank":"empty","address":"Frinis 1, Athina 116 34, Greece"},{"postal_code":"null","coordinates":{"lng":"23.8628","lat":"37.95"},"bank":"empty","address":"Leof. Lavriou 144-146, Peania 190 02, Greece"},{"postal_code":"null","coordinates":{"lng":"23.6932","lat":"37.9276"},"bank":"empty","address":"Agiou Alexandrou 19, Paleo Faliro 175 61, Greece"},{"postal_code":"null","coordinates":{"lng":"23.6929","lat":"37.9253"},"bank":"empty","address":"Amfitritis 8, Paleo Faliro 175 61, Greece"},{"postal_code":"null","coordinates":{"lng":"23.8857","lat":"38.0037"},"bank":"empty","address":"Leof. Marathonos 120, Pallini 153 51, Greece"},{"postal_code":"null","coordinates":{"lng":"23.7346","lat":"37.9785"},"bank":"empty","address":"Panepistimiou 16-18, Athina 105 64, Greece"},{"postal_code":"null","coordinates":{"lng":"23.7348","lat":"37.9782"},"bank":"empty","address":"Panepistimiou 16, Athina 106 72, Greece"},{"postal_code":"null","coordinates":{"lng":"23.037","lat":"40.5911"},"bank":"empty","address":"Leof. Komninon 16-18, Panorama 552 36, Greece"},{"postal_code":"null","coordinates":{"lng":"23.7623","lat":"37.9928"},"bank":"empty","address":"Panormou 70-72, Ampelokipi Menemeni 115 23, Greece"},{"postal_code":"null","coordinates":{"lng":"22.9598","lat":"40.6171"},"bank":"empty","address":"Al. Papanastasiou 18, Thessaloniki 546 39, Greece"},{"postal_code":"null","coordinates":{"lng":"23.6413","lat":"37.9504"},"bank":"empty","address":"Polidefkous 41-53, Pireas 185 45, Greece"},{"postal_code":"null","coordinates":{"lng":"23.7995","lat":"38.0369"},"bank":"empty","address":"Paradisou 2, Marousi 151 25, Greece"},{"postal_code":"null","coordinates":{"lng":"24.4093","lat":"40.9365"},"bank":"empty","address":"Erithrou Stavrou, Kavala 653 02, Greece"},{"postal_code":"null","coordinates":{"lng":"25.1489","lat":"37.0852"},"bank":"empty","address":"Lochagou Kourtinou, Paros 844 00, Greece"},{"postal_code":"null","coordinates":{"lng":"23.6502","lat":"37.9412"},"bank":"empty","address":"Leof. Vasileos Georgiou B 2, Pireas 185 34, Greece"},{"postal_code":"null","coordinates":{"lng":"23.7317","lat":"37.9932"},"bank":"empty","address":"28is Oktovriou 68, Athina 104 34, Greece"},{"postal_code":"null","coordinates":{"lng":"21.733","lat":"38.2473"},"bank":"empty","address":"Asklipiou 2-6, Patra 262 21, Greece"},{"postal_code":"null","coordinates":{"lng":"21.7882","lat":"40.3024"},"bank":"empty","address":"P. Mela 17, Kozani 501 00, Greece"},{"postal_code":"null","coordinates":{"lng":"23.6477","lat":"37.9436"},"bank":"empty","address":"Leof. Ir. Politechniou 37, Pireas 185 31, Greece"},{"postal_code":"null","coordinates":{"lng":"22.9268","lat":"40.5048"},"bank":"empty","address":"Ampelokipon 34, Perea 570 19, Greece"},{"postal_code":"null","coordinates":{"lng":"23.5692","lat":"37.9642"},"bank":"empty","address":"Leof. Irinis 123, Perama 188 63, Greece"},{"postal_code":"null","coordinates":{"lng":"23.6535","lat":"37.9706"},"bank":"empty","address":"Petrou Ralli 207, Nikea 184 54, Greece"},{"postal_code":"null","coordinates":{"lng":"23.6933","lat":"38.0153"},"bank":"empty","address":"Leof. Panagi Tsaldari 46, Peristeri 121 34, Greece"},{"postal_code":"null","coordinates":{"lng":"23.6622","lat":"37.9679"},"bank":"empty","address":"Thivon 201, Nikea 184 54, Greece"},{"postal_code":"null","coordinates":{"lng":"23.7112","lat":"37.9698"},"bank":"empty","address":"Trion Ierarchon 113, Athina 118 51, Greece"},{"postal_code":"null","coordinates":{"lng":"23.6827","lat":"38.0429"},"bank":"empty","address":"25is Martiou 62, Petroupoli 132 31, Greece"},{"postal_code":"null","coordinates":{"lng":"23.6849","lat":"38.0421"},"bank":"empty","address":"25is Martiou 79-89, Petroupoli 132 31, Greece"},{"postal_code":"null","coordinates":{"lng":"23.795","lat":"38.0593"},"bank":"empty","address":"Chrisostomou Smirnis 1, Pefki 151 21, Greece"},{"postal_code":"null","coordinates":{"lng":"22.9845","lat":"40.6576"},"bank":"empty","address":"Leof. Papanikolaou, Pefka 570 10, Greece"},{"postal_code":"null","coordinates":{"lng":"22.217","lat":"40.5098"},"bank":"empty","address":"A. Anagnostopoulou 156, Veria 591 32, Greece"},{"postal_code":"null","coordinates":{"lng":"24.0179","lat":"35.5139"},"bank":"empty","address":"Chatzimichali Giannari 68-76, Chania 731 35, Greece"},{"postal_code":"null","coordinates":{"lng":"20.8547","lat":"39.6667"},"bank":"empty","address":"Averof 1-5, Ioannina 452 21, Greece"},{"postal_code":"null","coordinates":{"lng":"25.1362","lat":"35.3372"},"bank":"empty","address":"Averof 2, Iraklio 712 01, Greece"},{"postal_code":"null","coordinates":{"lng":"22.5092","lat":"40.2714"},"bank":"empty","address":"Kanari, Katerini 601 00, Greece"},{"postal_code":"null","coordinates":{"lng":"22.922","lat":"40.6528"},"bank":"empty","address":"El. Venizelou 71, Ampelokipi 561 21, Greece"},{"postal_code":"null","coordinates":{"lng":"28.2224","lat":"36.4509"},"bank":"empty","address":"Ierou Lochou 14, Rodos 851 00, Greece"},{"postal_code":"null","coordinates":{"lng":"19.9192","lat":"39.622"},"bank":"empty","address":"Mantzarou 24, Kerkira 491 00, Greece"},{"postal_code":"null","coordinates":{"lng":"21.4093","lat":"38.6267"},"bank":"empty","address":"Papastratou 21-23, Agrinio 301 31, Greece"},{"postal_code":"null","coordinates":{"lng":"23.7316","lat":"37.9854"},"bank":"empty","address":"Tzortz 4, Athina 106 77, Greece"},{"postal_code":"null","coordinates":{"lng":"23.7329","lat":"37.9751"},"bank":"empty","address":"Mitropoleos 7, Athina 105 57, Greece"},{"postal_code":"null","coordinates":{"lng":"23.6752","lat":"37.9617"},"bank":"empty","address":"Kon\/nou Paleologou 5-7, Ag. Ioannis Rentis 182 33, Greece"},{"postal_code":"null","coordinates":{"lng":"23.723","lat":"37.9961"},"bank":"empty","address":"Admitou 9, Athina 104 40, Greece"},{"postal_code":"null","coordinates":{"lng":"23.807","lat":"38.0542"},"bank":"empty","address":"Dim. Ralli 2, Marousi 151 24, Greece"},{"postal_code":"null","coordinates":{"lng":"23.7403","lat":"37.9772"},"bank":"empty","address":"Pl. Filikis Eterias 2, Athina 106 74, Greece"},{"postal_code":"null","coordinates":{"lng":"23.7273","lat":"37.9815"},"bank":"empty","address":"Athinas 59-61, Athina 105 51, Greece"},{"postal_code":"null","coordinates":{"lng":"23.7574","lat":"37.983"},"bank":"empty","address":"Leof. Vasilissis Sofias 97, Athina 115 21, Greece"},{"postal_code":"null","coordinates":{"lng":"23.4419","lat":"40.3787"},"bank":"empty","address":"Char. Trikoupi, Poligiros 631 00, Greece"},{"postal_code":"null","coordinates":{"lng":"24.0055","lat":"37.8875"},"bank":"empty","address":"Leof. G. Gregou 5, Porto Rafti 190 03, Greece"},{"postal_code":"null","coordinates":{"lng":"20.7493","lat":"38.9619"},"bank":"empty","address":"EO21 14, Preveza 481 00, Greece"},{"postal_code":"null","coordinates":{"lng":"20.7549","lat":"38.9568"},"bank":"empty","address":"El. Venizelou 866, Preveza 481 00, Greece"},{"postal_code":"null","coordinates":{"lng":"21.6799","lat":"40.515"},"bank":"empty","address":"Gonatas, Ptolemaida 502 00, Greece"},{"postal_code":"null","coordinates":{"lng":"21.6785","lat":"40.5115"},"bank":"empty","address":"Filippou 2, Ptolemaida 502 00, Greece"},{"postal_code":"null","coordinates":{"lng":"22.9862","lat":"40.603"},"bank":"empty","address":"Voulgaroktonou 12, Pilea 555 35, Greece"},{"postal_code":"null","coordinates":{"lng":"21.4378","lat":"37.6736"},"bank":"empty","address":"Meg. Alexandrou 2, Pirgos 271 00, Greece"},{"postal_code":"null","coordinates":{"lng":"21.4413","lat":"37.6725"},"bank":"empty","address":"Avgerinou 12, Pirgos 271 00, Greece"},{"postal_code":"null","coordinates":{"lng":"20.8502","lat":"39.6639"},"bank":"empty","address":"Pirsinela 5-11, Ioannina 453 32, Greece"},{"postal_code":"null","coordinates":{"lng":"24.0092","lat":"38.0202"},"bank":"empty","address":"Christou Mantika 1, Rafina 190 09, Greece"},{"postal_code":"null","coordinates":{"lng":"24.48","lat":"35.3654"},"bank":"empty","address":"Kountouriotou 111, Rethymno 741 00, Greece"},{"postal_code":"null","coordinates":{"lng":"24.4701","lat":"35.3666"},"bank":"empty","address":"Igoumenou Gavriil 38, Rethymno 741 00, Greece"},{"postal_code":"null","coordinates":{"lng":"21.7367","lat":"38.2492"},"bank":"empty","address":"Kolokotroni 13, Patra 262 21, Greece"},{"postal_code":"null","coordinates":{"lng":"28.2203","lat":"36.4539"},"bank":"empty","address":"Patmou 4, Rodos 851 00, Greece"},{"postal_code":"null","coordinates":{"lng":"28.2235","lat":"36.4485"},"bank":"empty","address":"Grigoriou Lampraki 1-3, Rodos 851 00, Greece"},{"postal_code":"null","coordinates":{"lng":"23.5035","lat":"37.9647"},"bank":"empty","address":"Avenue Ippokratous 174-192, Paloukia 189 00, Greece"},{"postal_code":"null","coordinates":{"lng":"22.9533","lat":"40.6076"},"bank":"empty","address":"Leof. Vasilissis Olgas 82-84, Thessaloniki 546 43, Greece"},{"postal_code":"null","coordinates":{"lng":"26.9764","lat":"37.756"},"bank":"empty","address":"Sofouli 25, Samos 831 00, Greece"},{"postal_code":"null","coordinates":{"lng":"25.4341","lat":"36.4123"},"bank":"empty","address":"Epar.Od. Firon-Ormou Perissis, Santorini 847 00, Greece"},{"postal_code":"null","coordinates":{"lng":"25.6962","lat":"41.0229"},"bank":"empty","address":"Marinaki, Sapes 693 00, Greece"},{"postal_code":"null","coordinates":{"lng":"23.7169","lat":"38.0061"},"bank":"empty","address":"Dramas 167-169, Athina 104 43, Greece"},{"postal_code":"null","coordinates":{"lng":"23.549","lat":"41.089"},"bank":"empty","address":"Peristeri Kostopoulou 2-6, Serres 621 22, Greece"},{"postal_code":"null","coordinates":{"lng":"23.5398","lat":"41.0875"},"bank":"empty","address":"Ithakis 2-6, Serres 621 21, Greece"},{"postal_code":"null","coordinates":{"lng":"23.548","lat":"41.0916"},"bank":"empty","address":"Nik. Plastira 10, Serres 621 21, Greece"},{"postal_code":"null","coordinates":{"lng":"21.5496","lat":"40.2616"},"bank":"empty","address":"Ioannidi, Siatista 503 00, Greece"},{"postal_code":"null","coordinates":{"lng":"22.928","lat":"40.6435"},"bank":"empty","address":"Anagenniseos 52, Thessaloniki 546 27, Greece"},{"postal_code":"null","coordinates":{"lng":"22.8135","lat":"40.6866"},"bank":"empty","address":"Unnamed Road, Oreokastro 570 22, Greece"},{"postal_code":"null","coordinates":{"lng":"24.7232","lat":"36.9742"},"bank":"empty","address":"Epar.Od. Limani Kamaron-Artemonas, Apollonia 840 03, Greece"},{"postal_code":"null","coordinates":{"lng":"21.735","lat":"38.2372"},"bank":"empty","address":"Archiepiskopou Ierotheou 107, Patra 262 24, Greece"},{"postal_code":"null","coordinates":{"lng":"22.6684","lat":"36.8531"},"bank":"empty","address":"Karaiskaki, Skala 230 51, Greece"},{"postal_code":"null","coordinates":{"lng":"24.0151","lat":"35.5131"},"bank":"empty","address":"Manousogiannakidon 8, Chania 731 36, Greece"},{"postal_code":"null","coordinates":{"lng":"23.4856","lat":"39.1641"},"bank":"empty","address":"Papadiamanti, Skiathos 370 02, Greece"},{"postal_code":"null","coordinates":{"lng":"22.1541","lat":"40.7676"},"bank":"empty","address":"Sachini, Skidra 585 00, Greece"},{"postal_code":"null","coordinates":{"lng":"26.3066","lat":"41.1943"},"bank":"empty","address":"Ermou, Soufli 684 00, Greece"},{"postal_code":"null","coordinates":{"lng":"22.4291","lat":"37.0771"},"bank":"empty","address":"Thermopilon 95, Sparti 231 00, Greece"},{"postal_code":"null","coordinates":{"lng":"22.4306","lat":"37.0735"},"bank":"empty","address":"Kon\/nou Palaiologou 40-44, Sparti 231 00, Greece"},{"postal_code":"null","coordinates":{"lng":"23.7341","lat":"37.9771"},"bank":"empty","address":"Stadiou 4, Athina 105 62, Greece"},{"postal_code":"null","coordinates":{"lng":"22.9367","lat":"40.665"},"bank":"empty","address":"Grigoriou Lampraki 2-4, Stavroupoli 564 29, Greece"},{"postal_code":"null","coordinates":{"lng":"23.7218","lat":"37.9603"},"bank":"empty","address":"Leof. Andrea Siggrou 87, Athina 117 45, Greece"},{"postal_code":"null","coordinates":{"lng":"23.7218","lat":"37.9603"},"bank":"empty","address":"Leof. Andrea Siggrou 87, Athina 117 45, Greece"},{"postal_code":"null","coordinates":{"lng":"22.949","lat":"40.6469"},"bank":"empty","address":"Paraskeva 2-8, Sikies 566 25, Greece"},{"postal_code":"null","coordinates":{"lng":"24.9427","lat":"37.4433"},"bank":"empty","address":"Akti Ethnikis Antistaseos, Ermoupoli 841 00, Greece"},{"postal_code":"null","coordinates":{"lng":"23.6993","lat":"37.9686"},"bank":"empty","address":"Pireos 205, Athina 177 78, Greece"},{"postal_code":"null","coordinates":{"lng":"25.1633","lat":"37.5369"},"bank":"empty","address":"Epar.Od. Tinou-Kallonis, Tinos 842 00, Greece"},{"postal_code":"null","coordinates":{"lng":"22.991","lat":"40.6092"},"bank":"empty","address":"Geor. Seferi 1-3, Pilea 543 52, Greece"},{"postal_code":"null","coordinates":{"lng":"22.9803","lat":"40.6136"},"bank":"empty","address":"Grigoriou Lampraki 159-161, Thessaloniki 543 52, Greece"},{"postal_code":"null","coordinates":{"lng":"22.9726","lat":"40.6165"},"bank":"empty","address":"Isidorou 2-4, Thessaloniki 543 51, Greece"},{"postal_code":"null","coordinates":{"lng":"21.7695","lat":"39.5547"},"bank":"empty","address":"Dionisiou 11, Trikala 421 00, Greece"},{"postal_code":"null","coordinates":{"lng":"21.766","lat":"39.5516"},"bank":"empty","address":"Asklipiou 17, Trikala 421 00, Greece"},{"postal_code":"null","coordinates":{"lng":"21.7668","lat":"39.5533"},"bank":"empty","address":"Asklipiou, Trikala 421 00, Greece"},{"postal_code":"null","coordinates":{"lng":"22.3714","lat":"37.5106"},"bank":"empty","address":"Ethnomartyron 5-11, Tripoli 221 00, Greece"},{"postal_code":"null","coordinates":{"lng":"22.3724","lat":"37.5106"},"bank":"empty","address":"Eth. Antistaseos 1, Tripoli 221 00, Greece"},{"postal_code":"null","coordinates":{"lng":"22.3909","lat":"37.5069"},"bank":"empty","address":"EO7 72, Tripoli 221 00, Greece"},{"postal_code":"null","coordinates":{"lng":"23.694","lat":"38.0145"},"bank":"empty","address":"Irodotou 1, Peristeri 121 34, Greece"},{"postal_code":"null","coordinates":{"lng":"24.7642","lat":"35.0726"},"bank":"empty","address":"Leof. Kokkinou Pirgou 156, Timpaki 702 00, Greece"},{"postal_code":"null","coordinates":{"lng":"22.2886","lat":"39.7388"},"bank":"empty","address":"Agias Paraskevis, Tirnavos 401 00, Greece"},{"postal_code":"null","coordinates":{"lng":"26.1407","lat":"38.3548"},"bank":"empty","address":"Aeroporou Rodokanaki 43-45, Chios 821 00, Greece"},{"postal_code":"null","coordinates":{"lng":"22.3831","lat":"39.2952"},"bank":"empty","address":"28is Oktovriou 44, Farsala 403 00, Greece"},{"postal_code":"null","coordinates":{"lng":"22.3973","lat":"39.6287"},"bank":"empty","address":"Chatzimichali 81, Larisa 413 34, Greece"},{"postal_code":"null","coordinates":{"lng":"23.7884","lat":"38.0188"},"bank":"empty","address":"Leof. Kifisias 272, Chalandri 152 32, Greece"},{"postal_code":"null","coordinates":{"lng":"23.7448","lat":"37.9622"},"bank":"empty","address":"Evmenous 36-42, Athina 116 32, Greece"},{"postal_code":"null","coordinates":{"lng":"21.4072","lat":"40.7801"},"bank":"empty","address":"Nik. Chasou 31-33, Florina 531 00, Greece"},{"postal_code":"null","coordinates":{"lng":"21.4041","lat":"40.7796"},"bank":"empty","address":"Sotiriou 1, Florina 531 00, Greece"},{"postal_code":"null","coordinates":{"lng":"23.7548","lat":"37.8599"},"bank":"empty","address":"Fivis 17-19, Glifada 166 74, Greece"},{"postal_code":"null","coordinates":{"lng":"23.7376","lat":"38.0013"},"bank":"empty","address":"\u03a6\u03c9\u03ba\u03af\u03c9\u03bd\u03bf\u03c2 \u039d\u03ad\u03b3\u03c1\u03b7 29, Athina 113 61, Greece"},{"postal_code":"null","coordinates":{"lng":"23.6613","lat":"38.0085"},"bank":"empty","address":"Agoniston Stratopedou Chaidariou 76, Chaidari 124 61, Greece"},{"postal_code":"null","coordinates":{"lng":"23.6104","lat":"38.4696"},"bank":"empty","address":"Leof. Chaina 89, Chalkida 341 00, Greece"},{"postal_code":"null","coordinates":{"lng":"23.7967","lat":"38.0187"},"bank":"empty","address":"Andrea Papandreou 89, Chalandri 152 32, Greece"},{"postal_code":"null","coordinates":{"lng":"23.8018","lat":"38.0229"},"bank":"empty","address":"Leof. Pentelis 7-13, Chalandri 152 34, Greece"},{"postal_code":"null","coordinates":{"lng":"23.8008","lat":"38.0223"},"bank":"empty","address":"Agiou Georgiou 4-10, Chalandri 152 34, Greece"},{"postal_code":"null","coordinates":{"lng":"23.5955","lat":"38.4631"},"bank":"empty","address":"Kriezotou 76, Chalkida 341 00, Greece"},{"postal_code":"null","coordinates":{"lng":"23.5942","lat":"38.4627"},"bank":"empty","address":"\u039c\u03b1\u03c1\u03b3\u03b1\u03c1\u03af\u03c4\u03b7 17, Chalkida 341 00, Greece"},{"postal_code":"null","coordinates":{"lng":"24.0245","lat":"35.5113"},"bank":"empty","address":"Str. Tzanakaki 90, Chania 731 34, Greece"},{"postal_code":"null","coordinates":{"lng":"24.0237","lat":"35.5119"},"bank":"empty","address":"Str. Tzanakaki 82, Chania 731 34, Greece"},{"postal_code":"null","coordinates":{"lng":"22.9684","lat":"40.6054"},"bank":"empty","address":"Str. Gennadiou 50, Thessaloniki 542 50, Greece"},{"postal_code":"null","coordinates":{"lng":"22.9683","lat":"40.6034"},"bank":"empty","address":"Plateon 21-23, Thessaloniki 542 49, Greece"},{"postal_code":"null","coordinates":{"lng":"23.7088","lat":"37.9593"},"bank":"empty","address":"Charokopou 74, Kallithea 176 71, Greece"},{"postal_code":"null","coordinates":{"lng":"26.136","lat":"38.3708"},"bank":"empty","address":"EO75, Chios 821 00, Greece"},{"postal_code":"null","coordinates":{"lng":"26.1349","lat":"38.3698"},"bank":"empty","address":"Pachnou 7-9, Chios 821 00, Greece"},{"postal_code":"null","coordinates":{"lng":"23.7959","lat":"38.0055"},"bank":"empty","address":"Leof. Mesogeion 246, Cholargos 155 61, Greece"},{"postal_code":"null","coordinates":{"lng":"24.7019","lat":"40.9848"},"bank":"empty","address":"El. Venizelou, Chrisoupoli 642 00, Greece"},{"postal_code":"null","coordinates":{"lng":"23.6419","lat":"38.5745"},"bank":"empty","address":"Avanton 24, Psachna 344 00, Greece"},{"postal_code":"null","coordinates":{"lng":"23.7787","lat":"38.0081"},"bank":"empty","address":"El. Venizelou 1, Neo Psichiko 154 51, Greece"},{"postal_code":"null","coordinates":{"lng":"23.7787","lat":"38.008"},"bank":"empty","address":"El. Venizelou 1, Neo Psichiko 154 51, Greece"},{"postal_code":"null","coordinates":{"lng":"22.9185","lat":"40.7308"},"bank":"empty","address":"Leof. Dimokratias 29, Oreokastro 570 13, Greece"},{"postal_code":"null","coordinates":{"lng":"23.8233","lat":"38.0144"},"bank":"empty","address":"Patroklou 4, Ag. Paraskevi 153 43, Greece"},{"postal_code":"null","coordinates":{"lng":"23.8066","lat":"38.0468"},"bank":"empty","address":"Agiou Konstantinou 59, Marousi 151 24, Greece"},{"postal_code":"null","coordinates":{"lng":"22.7582","lat":"37.6205"},"bank":"empty","address":"EO Argous - Nafpliou, Argos Mykines 212 00, Greece"},{"postal_code":"null","coordinates":{"lng":"23.7452","lat":"37.9121"},"bank":"empty","address":"Marinou Antipa 593, Argiroupoli 164 52, Greece"},{"postal_code":"null","coordinates":{"lng":"23.7533","lat":"37.8829"},"bank":"empty","address":"Tzavella 8, Glifada 166 75, Greece"},{"postal_code":"null","coordinates":{"lng":"23.7586","lat":"37.9363"},"bank":"empty","address":"Leof. El. Venizelou 124, Ilioupoli 163 45, Greece"},{"postal_code":"null","coordinates":{"lng":"25.1358","lat":"35.3375"},"bank":"empty","address":"Pl. Eleftherias 159, Iraklio 712 02, Greece"},{"postal_code":"null","coordinates":{"lng":"23.8911","lat":"37.7948"},"bank":"empty","address":"Leof. Kalyvion 87, Kalivia Thorikou 190 10, Greece"},{"postal_code":"null","coordinates":{"lng":"22.4184","lat":"39.6341"},"bank":"empty","address":"Asklipiou 50, Larisa 412 22, Greece"},{"postal_code":"null","coordinates":{"lng":"23.7664","lat":"37.9932"},"bank":"empty","address":"Panormou 129, Athina 115 24, Greece"},{"postal_code":"null","coordinates":{"lng":"22.9632","lat":"40.6145"},"bank":"empty","address":"Al. Papanastasiou 33, Thessaloniki 544 53, Greece"},{"postal_code":"null","coordinates":{"lng":"23.7313","lat":"37.992"},"bank":"empty","address":"28is Oktovriou 71, Athina 104 34, Greece"},{"postal_code":"null","coordinates":{"lng":"21.7347","lat":"38.2429"},"bank":"empty","address":"Al. Ipsilantou 215, Patra 262 25, Greece"},{"postal_code":"null","coordinates":{"lng":"23.6529","lat":"37.9443"},"bank":"empty","address":"Grigoriou Lampraki 49, Pireas 185 34, Greece"},{"postal_code":"null","coordinates":{"lng":"22.9856","lat":"40.5709"},"bank":"empty","address":"A\/D Thessalonikis Neon Moudanion, Pilea Chortiatis 555 35, Greece"},{"postal_code":"null","coordinates":{"lng":"23.76","lat":"37.9847"},"bank":"empty","address":"Leof. Vasilissis Sofias 2, Athina 115 26, Greece"},{"postal_code":"null","coordinates":{"lng":"24.4881","lat":"35.3646"},"bank":"empty","address":"Mark. Portaliou 8, Rethymno 741 00, Greece"},{"postal_code":"null","coordinates":{"lng":"24.9391","lat":"37.4401"},"bank":"empty","address":"Afroditis, Ermoupoli 841 00, Greece"},{"postal_code":"null","coordinates":{"lng":"23.7901","lat":"38.0243"},"bank":"empty","address":"Leof. Vasileos Georgiou B 47, Chalandri 152 32, Greece"},{"postal_code":"null","coordinates":{"lng":"24.0222","lat":"35.5146"},"bank":"empty","address":"Daskalogianni 1, Chania 731 32, Greece"},{"postal_code":"null","coordinates":{"lng":"26.1376","lat":"38.3694"},"bank":"empty","address":"Rodokanaki 16-20, Chios 821 00, Greece"},{"postal_code":"null","coordinates":{"lng":"23.8337","lat":"38.0256"},"bank":"empty","address":"Agiou Antoniou 2, Chalandri 152 35, Greece"},{"postal_code":"null","coordinates":{"lng":"23.6121","lat":"37.9625"},"bank":"empty","address":"Grigoriou Lampraki 15, Keratsini Drapetsona 187 58, Greece"},{"postal_code":"null","coordinates":{"lng":"23.839","lat":"38.0548"},"bank":"empty","address":"El. Venizelou Avenue 20, Melissia 151 27, Greece"},{"postal_code":"null","coordinates":{"lng":"23.7299","lat":"38.0281"},"bank":"empty","address":"Dervenakion 28-30, Nea Chalkidona 143 43, Greece"},{"postal_code":"null","coordinates":{"lng":"23.7868","lat":"38.0071"},"bank":"empty","address":"25is Martiou 48, Neo Psichiko 154 51, Greece"},{"postal_code":"null","coordinates":{"lng":"23.811","lat":"38.0179"},"bank":"empty","address":"Agias Paraskevis 113, Chalandri 152 34, Greece"},{"postal_code":"null","coordinates":{"lng":"23.6499","lat":"37.9415"},"bank":"empty","address":"Odissea Androutsou 143, Pireas 185 32, Greece"},{"postal_code":"null","coordinates":{"lng":"23.8001","lat":"38.0227"},"bank":"empty","address":"Pl. Dourou 617, Chalandri 152 33, Greece"},{"postal_code":"null","coordinates":{"lng":"23.6792","lat":"37.9922"},"bank":"empty","address":"Iera Odos 266, Egaleo 122 42, Greece"},{"postal_code":"null","coordinates":{"lng":"23.7336","lat":"37.9826"},"bank":"empty","address":"Akadimias 62, Athina 106 79, Greece"},{"postal_code":"null","coordinates":{"lng":"23.8065","lat":"38.0554"},"bank":"empty","address":"Ermou 26, Marousi 151 24, Greece"},{"postal_code":"null","coordinates":{"lng":"23.7357","lat":"38.021"},"bank":"empty","address":"Patision 362, Athina 111 41, Greece"},{"postal_code":"null","coordinates":{"lng":"23.5529","lat":"41.092"},"bank":"empty","address":"Archiepiskopou Makariou 1-3, Serres 621 22, Greece"},{"postal_code":"null","coordinates":{"lng":"23.7297","lat":"38.0083"},"bank":"empty","address":"Acharnon 284, Athina 112 53, Greece"},{"postal_code":"null","coordinates":{"lng":"22.9459","lat":"39.3609"},"bank":"empty","address":"Dimitriados 74-80, Volos 382 21, Greece"},{"postal_code":"null","coordinates":{"lng":"23.8319","lat":"38.0413"},"bank":"empty","address":"Leof. Pentelis 51, Vrilissia 152 35, Greece"},{"postal_code":"null","coordinates":{"lng":"23.7541","lat":"38.0143"},"bank":"empty","address":"Iras 2, Galatsi 111 47, Greece"},{"postal_code":"null","coordinates":{"lng":"23.7508","lat":"37.8631"},"bank":"empty","address":"Leof. Dimarchou Aggelou Metaxa 15, Glifada 166 75, Greece"},{"postal_code":"null","coordinates":{"lng":"24.1465","lat":"41.1502"},"bank":"empty","address":"Kiprou 3, Drama 661 00, Greece"},{"postal_code":"null","coordinates":{"lng":"26.5309","lat":"41.5033"},"bank":"empty","address":"Leof. Vasileos Konstantinou 59, Orestiada 682 00, Greece"},{"postal_code":"null","coordinates":{"lng":"23.7844","lat":"38.0106"},"bank":"empty","address":"Ir. Politechniou 167, Chalandri 152 31, Greece"},{"postal_code":"null","coordinates":{"lng":"23.537","lat":"38.0444"},"bank":"empty","address":"Ir. Politechniou 59, Elefsina 192 00, Greece"},{"postal_code":"null","coordinates":{"lng":"20.2641","lat":"39.5049"},"bank":"empty","address":"Kiprou 39-41, Igoumenitsa 461 00, Greece"},{"postal_code":"null","coordinates":{"lng":"25.1337","lat":"35.3385"},"bank":"empty","address":"Dikeosinis 59, Iraklio 712 01, Greece"},{"postal_code":"null","coordinates":{"lng":"23.6416","lat":"37.9369"},"bank":"empty","address":"Leof. Ir. Politechniou 106, Pireas 185 36, Greece"},{"postal_code":"null","coordinates":{"lng":"22.9462","lat":"40.6307"},"bank":"empty","address":"Tsimiski 85, Thessaloniki 546 22, Greece"},{"postal_code":"null","coordinates":{"lng":"20.8326","lat":"39.6833"},"bank":"empty","address":"Dim. Ioannou 14-20, Ioannina 454 45, Greece"},{"postal_code":"null","coordinates":{"lng":"22.1118","lat":"37.0408"},"bank":"empty","address":"Aristomenous 21, Kalamata 241 00, Greece"},{"postal_code":"null","coordinates":{"lng":"23.7039","lat":"37.9541"},"bank":"empty","address":"Sintagmatarchou Davaki 45, Kallithea 176 72, Greece"},{"postal_code":"null","coordinates":{"lng":"23.5491","lat":"41.089"},"bank":"empty","address":"Peristeri Kostopoulou 1-5, Serres 621 22, Greece"},{"postal_code":"null","coordinates":{"lng":"22.4168","lat":"39.638"},"bank":"empty","address":"Meg. Alexandrou 3-5, Larisa 412 22, Greece"},{"postal_code":"null","coordinates":{"lng":"23.7373","lat":"38.0835"},"bank":"empty","address":"Parnithos 32, Acharnes 136 73, Greece"},{"postal_code":"null","coordinates":{"lng":"23.679","lat":"37.9521"},"bank":"empty","address":"Str. Makrigianni 93, Moschato 183 45, Greece"},{"postal_code":"null","coordinates":{"lng":"21.8329","lat":"38.3963"},"bank":"empty","address":"Farmaki 24, Nafpaktos 303 00, Greece"},{"postal_code":"null","coordinates":{"lng":"23.8183","lat":"38.0889"},"bank":"empty","address":"El. Venizelou, Nea Erithrea 146 71, Greece"},{"postal_code":"null","coordinates":{"lng":"23.7549","lat":"38.0438"},"bank":"empty","address":"Leof. Irakliou 286, Nea Ionia 142 31, Greece"},{"postal_code":"null","coordinates":{"lng":"23.7132","lat":"37.9458"},"bank":"empty","address":"Omirou 60, Nea Smirni 171 21, Greece"},{"postal_code":"null","coordinates":{"lng":"23.7512","lat":"37.9644"},"bank":"empty","address":"Analipseos 64, Vironas 162 31, Greece"},{"postal_code":"null","coordinates":{"lng":"23.6921","lat":"37.9259"},"bank":"empty","address":"Agiou Alexandrou 3, Paleo Faliro 175 61, Greece"},{"postal_code":"null","coordinates":{"lng":"21.7351","lat":"38.2468"},"bank":"empty","address":"Maizonos 90, Patra 262 21, Greece"},{"postal_code":"null","coordinates":{"lng":"23.6939","lat":"38.0127"},"bank":"empty","address":"Sevastias 10, Peristeri 121 34, Greece"},{"postal_code":"null","coordinates":{"lng":"23.688","lat":"38.0406"},"bank":"empty","address":"25is Martiou 113, Petroupoli 132 31, Greece"},{"postal_code":"null","coordinates":{"lng":"22.9761","lat":"40.5787"},"bank":"empty","address":"Tompazi 20, Pilea Chortiatis 555 35, Greece"},{"postal_code":"null","coordinates":{"lng":"21.4218","lat":"37.6809"},"bank":"empty","address":"Patron 110, Pirgos 271 00, Greece"},{"postal_code":"null","coordinates":{"lng":"23.4977","lat":"37.9645"},"bank":"empty","address":"Panagiotesa, Salamina 189 00, Greece"},{"postal_code":"null","coordinates":{"lng":"23.7343","lat":"37.9767"},"bank":"empty","address":"Stadiou 3, Athina 105 62, Greece"},{"postal_code":"null","coordinates":{"lng":"22.9842","lat":"40.6121"},"bank":"empty","address":"Dim. Tsiapanou 36-40, Thessaloniki 543 52, Greece"},{"postal_code":"null","coordinates":{"lng":"24.0167","lat":"35.5137"},"bank":"empty","address":"Skalidi 10, Chania 731 31, Greece"},{"postal_code":"null","coordinates":{"lng":"23.7356","lat":"37.9657"},"bank":"empty","address":"Malamou 3, Athina 116 36, Greece"},{"postal_code":"null","coordinates":{"lng":"23.6653","lat":"38.017"},"bank":"empty","address":"Rimini 1, Chaidari 124 62, Greece"},{"postal_code":"null","coordinates":{"lng":"23.7417","lat":"38.0254"},"bank":"empty","address":"Leof. Irakliou 83, Athina 111 42, Greece"},{"postal_code":"null","coordinates":{"lng":"23.6665","lat":"37.9805"},"bank":"empty","address":"Eptanisou, Nikea, Greece"},{"postal_code":"null","coordinates":{"lng":"23.0271","lat":"40.5402"},"bank":"empty","address":"EO Thessalonikis Poligirou 9, Thermi 570 01, Greece"},{"postal_code":"null","coordinates":{"lng":"22.9309","lat":"40.6397"},"bank":"empty","address":"Stathmou, Thessaloniki 546 27, Greece"},{"postal_code":"null","coordinates":{"lng":"23.7396","lat":"37.9377"},"bank":"empty","address":"Grigoriou Lampraki 14, Ag. Dimitrios 173 43, Greece"},{"postal_code":"null","coordinates":{"lng":"23.7299","lat":"37.9802"},"bank":"empty","address":"Aristidou 9, Athina 105 59, Greece"},{"postal_code":"null","coordinates":{"lng":"23.7586","lat":"37.8805"},"bank":"empty","address":"Andrea Papandreou 123-125, Glifada 165 61, Greece"},{"postal_code":"null","coordinates":{"lng":"25.1364","lat":"35.3321"},"bank":"empty","address":"Chrisostomou 27-31, Iraklio 713 06, Greece"},{"postal_code":"null","coordinates":{"lng":"20.8557","lat":"39.6701"},"bank":"empty","address":"Katsari 4, Ioannina 454 44, Greece"},{"postal_code":"null","coordinates":{"lng":"22.4099","lat":"39.6248"},"bank":"empty","address":"\u039a\u03b1\u03c1\u03b4\u03af\u03c4\u03c3\u03b7\u03c2 101-103, Larisa, Greece"},{"postal_code":"null","coordinates":{"lng":"21.7259","lat":"38.238"},"bank":"empty","address":"Akti Dimeon 18, Patra 262 22, Greece"},{"postal_code":"null","coordinates":{"lng":"22.9513","lat":"40.6273"},"bank":"empty","address":"Tsimiski 139, Thessaloniki 546 21, Greece"},{"postal_code":"null","coordinates":{"lng":"23.7122","lat":"37.9722"},"bank":"empty","address":"Trion Ierarchon 68, Athina 118 51, Greece"},{"postal_code":"null","coordinates":{"lng":"23.7141","lat":"37.9931"},"bank":"empty","address":"Vouthrotou 43, Athina 104 44, Greece"},{"postal_code":"null","coordinates":{"lng":"23.7401","lat":"37.9623"},"bank":"empty","address":"Imittou 247, Athina 116 32, Greece"},{"postal_code":"null","coordinates":{"lng":"23.7604","lat":"37.9925"},"bank":"empty","address":"Vrastovou 27, Ampelokipi Menemeni 115 24, Greece"},{"postal_code":"null","coordinates":{"lng":"23.7351","lat":"38.0094"},"bank":"empty","address":"Patision 250, Athina 112 54, Greece"},{"postal_code":"null","coordinates":{"lng":"23.7248","lat":"37.9787"},"bank":"empty","address":"Aristofanous 1, Athina 105 54, Greece"},{"postal_code":"null","coordinates":{"lng":"23.7262","lat":"37.9844"},"bank":"empty","address":"Agiou Konstantinou 7-15, Athina 104 31, Greece"},{"postal_code":"null","coordinates":{"lng":"23.9484","lat":"37.9359"},"bank":"empty","address":"Athens International Airport (ATH), Attiki Odos, Spata Artemida 190 04, Greece"},{"postal_code":"null","coordinates":{"lng":"23.7433","lat":"37.9956"},"bank":"empty","address":"Evelpidon 14, Athina 114 74, Greece"},{"postal_code":"null","coordinates":{"lng":"22.9928","lat":"40.5552"},"bank":"empty","address":"Cosmos Mall, 567, Pilea 555 35, Greece"},{"postal_code":"null","coordinates":{"lng":"23.7899","lat":"38.0442"},"bank":"empty","address":"Neratziotissis 123, Marousi 151 24, Greece"},{"postal_code":"null","coordinates":{"lng":"23.7901","lat":"38.0443"},"bank":"empty","address":"Neratziotissis 123, Marousi 151 24, Greece"},{"postal_code":"null","coordinates":{"lng":"24.0752","lat":"41.1484"},"bank":"empty","address":"Unnamed Road, Milopotamos 661 00, Greece"},{"postal_code":"null","coordinates":{"lng":"22.9238","lat":"39.3568"},"bank":"empty","address":"Koroniou 7-11, Volos 383 34, Greece"},{"postal_code":"null","coordinates":{"lng":"23.744","lat":"37.9766"},"bank":"empty","address":"Loukianou 8, Athina 106 75, Greece"},{"postal_code":"null","coordinates":{"lng":"25.1341","lat":"35.3403"},"bank":"empty","address":"25is Avgoustou 64-90, Iraklio 712 02, Greece"},{"postal_code":"null","coordinates":{"lng":"25.1178","lat":"35.3353"},"bank":"empty","address":"Dionisiou Fragkiadaki 5, Iraklio 713 04, Greece"},{"postal_code":"null","coordinates":{"lng":"23.5936","lat":"38.464"},"bank":"empty","address":"Kriezotou 37, Chalkida 341 00, Greece"},{"postal_code":"null","coordinates":{"lng":"21.7402","lat":"38.2548"},"bank":"empty","address":"Sarantaporou 10-14, Patra 262 23, Greece"},{"postal_code":"null","coordinates":{"lng":"22.9462","lat":"40.6392"},"bank":"empty","address":"Agiou Dimitriou 77-79, Thessaloniki 546 31, Greece"},{"postal_code":"null","coordinates":{"lng":"25.7171","lat":"35.1892"},"bank":"empty","address":"Merarchias 11, Ag. Nikolaos 721 00, Greece"},{"postal_code":"null","coordinates":{"lng":"22.2046","lat":"40.5247"},"bank":"empty","address":"Venizelou 14, Veria 591 32, Greece"},{"postal_code":"null","coordinates":{"lng":"23.854","lat":"38.1391"},"bank":"empty","address":"Chelmou 16, Ag. Stefanos 145 65, Greece"},{"postal_code":"null","coordinates":{"lng":"22.9534","lat":"40.6301"},"bank":"empty","address":"Aggelaki 35, Thessaloniki 546 21, Greece"},{"postal_code":"null","coordinates":{"lng":"23.8332","lat":"38.0134"},"bank":"empty","address":"Agiou Andreou 4, Ag. Paraskevi 153 43, Greece"},{"postal_code":"null","coordinates":{"lng":"23.6589","lat":"37.9882"},"bank":"empty","address":"Kountouriotou 2, Ag. Varvara 123 51, Greece"},{"postal_code":"null","coordinates":{"lng":"23.6929","lat":"37.9509"},"bank":"empty","address":"Leof. El. Venizelou 226, Kallithea 176 75, Greece"},{"postal_code":"null","coordinates":{"lng":"23.819","lat":"38.0129"},"bank":"empty","address":"Leof. Mesogeion 406, Ag. Paraskevi 153 42, Greece"},{"postal_code":"null","coordinates":{"lng":"22.9458","lat":"40.6352"},"bank":"empty","address":"Egnatia 63, Thessaloniki 546 31, Greece"},{"postal_code":"null","coordinates":{"lng":"23.7316","lat":"37.94"},"bank":"empty","address":"Kolokotroni 2, Ag. Dimitrios 173 43, Greece"},{"postal_code":"null","coordinates":{"lng":"21.7326","lat":"38.2468"},"bank":"empty","address":"Patreos 4-12, Patra 262 21, Greece"},{"postal_code":"null","coordinates":{"lng":"22.4128","lat":"39.6409"},"bank":"empty","address":"Kentavron 414, Larisa 412 22, Greece"},{"postal_code":"null","coordinates":{"lng":"22.4342","lat":"39.6317"},"bank":"empty","address":"PEO Athinon Thessalonikis, Larisa 413 35, Greece"},{"postal_code":"null","coordinates":{"lng":"23.7303","lat":"38.0006"},"bank":"empty","address":"Stavropoulou 2, Athina 112 52, Greece"},{"postal_code":"null","coordinates":{"lng":"23.7297","lat":"38.0076"},"bank":"empty","address":"Acharnon 276, Athina 104 46, Greece"},{"postal_code":"null","coordinates":{"lng":"21.4082","lat":"38.6236"},"bank":"empty","address":"Anastasiadi 1-5, Agrinio 301 31, Greece"},{"postal_code":"null","coordinates":{"lng":"21.4108","lat":"38.6252"},"bank":"empty","address":"Kiprou 20, Agrinio 301 31, Greece"},{"postal_code":"null","coordinates":{"lng":"21.4068","lat":"38.6228"},"bank":"empty","address":"Papaioannou 7, Agrinio 301 31, Greece"},{"postal_code":"null","coordinates":{"lng":"23.6823","lat":"37.9918"},"bank":"empty","address":"Dimarchiou 1, Egaleo 122 42, Greece"},{"postal_code":"null","coordinates":{"lng":"23.6794","lat":"37.9919"},"bank":"empty","address":"Kapodistriou 2-4, Egaleo 122 41, Greece"},{"postal_code":"null","coordinates":{"lng":"22.0888","lat":"38.251"},"bank":"empty","address":"Germanou 6-10, Egio 251 00, Greece"},{"postal_code":"null","coordinates":{"lng":"22.0858","lat":"38.2512"},"bank":"empty","address":"Filias, Egio 251 00, Greece"},{"postal_code":"null","coordinates":{"lng":"23.6428","lat":"37.9419"},"bank":"empty","address":"Akti Miaouli 23, Pireas 185 35, Greece"},{"postal_code":"null","coordinates":{"lng":"22.4384","lat":"40.6279"},"bank":"empty","address":"Peloponnisou 35, Alexandria 593 00, Greece"},{"postal_code":"null","coordinates":{"lng":"25.875","lat":"40.8461"},"bank":"empty","address":"El. Venizelou 34-44, Alexandroupoli 681 00, Greece"},{"postal_code":"null","coordinates":{"lng":"24.0381","lat":"38.4108"},"bank":"empty","address":"Mpakola, Aliveri 345 00, Greece"},{"postal_code":"null","coordinates":{"lng":"25.1586","lat":"35.3385"},"bank":"empty","address":"Irodotou 140, Nea Alikarnassos 716 01, Greece"},{"postal_code":"null","coordinates":{"lng":"23.7137","lat":"37.9094"},"bank":"empty","address":"Leof. Posidonos 50, Alimos 174 55, Greece"},{"postal_code":"null","coordinates":{"lng":"22.7602","lat":"39.1815"},"bank":"empty","address":"Vasileos Georgiou A 45, Almiros 371 00, Greece"},{"postal_code":"null","coordinates":{"lng":"21.3478","lat":"37.7952"},"bank":"empty","address":"Othonos Amalias, Amaliada 272 00, Greece"},{"postal_code":"null","coordinates":{"lng":"23.8088","lat":"38.0539"},"bank":"empty","address":"Vasilissis Sofias 26, Marousi 151 24, Greece"},{"postal_code":"null","coordinates":{"lng":"23.7638","lat":"37.989"},"bank":"empty","address":"Leof. Kifisias 41, Athina 115 23, Greece"},{"postal_code":"null","coordinates":{"lng":"21.6796","lat":"40.6906"},"bank":"empty","address":"Pl. Agoras, Aminteo 532 00, Greece"},{"postal_code":"null","coordinates":{"lng":"22.3802","lat":"38.5257"},"bank":"empty","address":"Karaiskaki 11-17, Amfissa 331 00, Greece"},{"postal_code":"null","coordinates":{"lng":"22.9397","lat":"40.6399"},"bank":"empty","address":"Adigonidon 17, Thessaloniki 546 30, Greece"},{"postal_code":"null","coordinates":{"lng":"23.716","lat":"37.9413"},"bank":"empty","address":"Artakis 92, Nea Smirni 171 23, Greece"},{"postal_code":"null","coordinates":{"lng":"23.7361","lat":"38.0228"},"bank":"empty","address":"Patision 380, Athina 111 41, Greece"},{"postal_code":"null","coordinates":{"lng":"22.7281","lat":"37.6351"},"bank":"empty","address":"Vasileos Georgiou V, Argos 212 00, Greece"},{"postal_code":"null","coordinates":{"lng":"20.4895","lat":"38.1774"},"bank":"empty","address":"Ioannou Metaxa 26, Argostoli 281 00, Greece"},{"postal_code":"null","coordinates":{"lng":"22.7296","lat":"37.6349"},"bank":"empty","address":"Kopah 1, Argos 212 00, Greece"},{"postal_code":"null","coordinates":{"lng":"22.7296","lat":"37.6349"},"bank":"empty","address":"Kopah 1, Argos 212 00, Greece"},{"postal_code":"null","coordinates":{"lng":"23.7501","lat":"37.9109"},"bank":"empty","address":"Ilektroupoleos 45A, Argiroupoli 164 51, Greece"},{"postal_code":"null","coordinates":{"lng":"22.0623","lat":"40.9759"},"bank":"empty","address":"Andrianomachon, Aridea 584 00, Greece"},{"postal_code":"null","coordinates":{"lng":"25.2647","lat":"35.1499"},"bank":"empty","address":"Epar.Od. Kallonis - Gdochia 49, Arkalochori 703 00, Greece"},{"postal_code":"null","coordinates":{"lng":"20.9986","lat":"39.157"},"bank":"empty","address":"Periferiaki Artas 39-41, Arta 471 00, Greece"},{"postal_code":"null","coordinates":{"lng":"20.9827","lat":"39.1603"},"bank":"empty","address":"El. Venizelou 1-7, Arta 471 00, Greece"},{"postal_code":"null","coordinates":{"lng":"20.9835","lat":"39.1616"},"bank":"empty","address":"Pirrou 9-19, Arta 471 00, Greece"},{"postal_code":"null","coordinates":{"lng":"22.7227","lat":"37.4044"},"bank":"empty","address":"Mattheou, Astros 220 01, Greece"},{"postal_code":"null","coordinates":{"lng":"22.9973","lat":"38.6541"},"bank":"empty","address":"Nik. Avraam, Atalanti 352 00, Greece"},{"postal_code":"null","coordinates":{"lng":"21.3654","lat":"38.0328"},"bank":"empty","address":"Archeas Olimpias, Varda 270 52, Greece"},{"postal_code":"null","coordinates":{"lng":"22.9387","lat":"40.6368"},"bank":"empty","address":"Vasileos Irakleiou 1-5, Thessaloniki 546 25, Greece"},{"postal_code":"null","coordinates":{"lng":"22.9556","lat":"40.5981"},"bank":"empty","address":"Leof. Vasilissis Olgas 201, Thessaloniki 546 46, Greece"},{"postal_code":"null","coordinates":{"lng":"24.1477","lat":"41.1499"},"bank":"empty","address":"Verginas 308, Drama 661 00, Greece"},{"postal_code":"null","coordinates":{"lng":"22.205","lat":"40.5238"},"bank":"empty","address":"Venizelou 1-3, Veria 591 32, Greece"},{"postal_code":"null","coordinates":{"lng":"22.2066","lat":"40.5265"},"bank":"empty","address":"P. Mela 13-15, Veria 591 32, Greece"},{"postal_code":"null","coordinates":{"lng":"22.9461","lat":"39.3601"},"bank":"empty","address":"Iasonos 70, Volos 382 21, Greece"},{"postal_code":"null","coordinates":{"lng":"22.9443","lat":"39.3611"},"bank":"empty","address":"Iasonos 41, Volos 383 33, Greece"},{"postal_code":"null","coordinates":{"lng":"22.9643","lat":"40.5994"},"bank":"empty","address":"Leof. Kon\/nou Karamanli 170, Thessaloniki 542 48, Greece"},{"postal_code":"null","coordinates":{"lng":"22.8014","lat":"37.9387"},"bank":"empty","address":"El. Venizelou, Zevgolatio 200 01, Greece"},{"postal_code":"null","coordinates":{"lng":"23.7525","lat":"37.9585"},"bank":"empty","address":"Chimarra 18-20, Vironas 162 32, Greece"},{"postal_code":"null","coordinates":{"lng":"21.7416","lat":"38.2296"},"bank":"empty","address":"Leof. Geor. Papandreou 100-102, Patra 263 32, Greece"},{"postal_code":"null","coordinates":{"lng":"23.7535","lat":"38.0132"},"bank":"empty","address":"Leof. Veikou 2-4, Galatsi 111 46, Greece"},{"postal_code":"null","coordinates":{"lng":"21.2565","lat":"37.8536"},"bank":"empty","address":"Kourvitsianou, Gastouni 273 00, Greece"},{"postal_code":"null","coordinates":{"lng":"22.4103","lat":"40.7909"},"bank":"empty","address":"G. Kougioumtzidi 15, Pella 581 00, Greece"},{"postal_code":"null","coordinates":{"lng":"22.4104","lat":"40.79"},"bank":"empty","address":"Papadopoulou 2-6, Giannitsa 581 00, Greece"},{"postal_code":"null","coordinates":{"lng":"23.7468","lat":"37.9929"},"bank":"empty","address":"Ioannou Varvaki 48, Athina 114 74, Greece"},{"postal_code":"null","coordinates":{"lng":"23.7489","lat":"37.8629"},"bank":"empty","address":"Lazaraki 6, Glifada 166 75, Greece"},{"postal_code":"null","coordinates":{"lng":"23.7681","lat":"37.9831"},"bank":"empty","address":"Papadiamantopoulou 140-142, Zografou 157 73, Greece"},{"postal_code":"null","coordinates":{"lng":"20.8362","lat":"39.6818"},"bank":"empty","address":"Leof. Grammou 29, Ioannina 454 45, Greece"},{"postal_code":"null","coordinates":{"lng":"21.4301","lat":"40.0843"},"bank":"empty","address":"Taliadouri 23-29, Grevena 511 00, Greece"},{"postal_code":"null","coordinates":{"lng":"21.4388","lat":"40.0858"},"bank":"empty","address":"Taliadouri, Grevena 511 00, Greece"},{"postal_code":"null","coordinates":{"lng":"23.7471","lat":"37.9894"},"bank":"empty","address":"Leonida Drosi 2, Athina 114 74, Greece"},{"postal_code":"null","coordinates":{"lng":"22.5645","lat":"36.7603"},"bank":"empty","address":"Archeou Theatrou 2, Githio 232 00, Greece"},{"postal_code":"null","coordinates":{"lng":"23.737","lat":"37.9497"},"bank":"empty","address":"Averof 52-64, Dafni 172 35, Greece"},{"postal_code":"null","coordinates":{"lng":"23.5504","lat":"41.0901"},"bank":"empty","address":"Tsalopoulou 2, Serres 621 22, Greece"},{"postal_code":"null","coordinates":{"lng":"25.4024","lat":"41.1203"},"bank":"empty","address":"Filikis Eterias 44, Komotini 691 00, Greece"},{"postal_code":"null","coordinates":{"lng":"22.946","lat":"40.6307"},"bank":"empty","address":"Tsimiski 80, Thessaloniki 546 22, Greece"},{"postal_code":"null","coordinates":{"lng":"26.4942","lat":"41.3497"},"bank":"empty","address":"El. Venizelou 2, Didimoticho 683 00, Greece"},{"postal_code":"null","coordinates":{"lng":"24.1483","lat":"41.1452"},"bank":"empty","address":"Diikitiriou 5, Drama 661 00, Greece"},{"postal_code":"null","coordinates":{"lng":"24.148","lat":"41.1469"},"bank":"empty","address":"Ipeirou 23, Drama 661 00, Greece"},{"postal_code":"null","coordinates":{"lng":"23.6292","lat":"37.9489"},"bank":"empty","address":"Chatzopoulou 2, Drapetsona 186 48, Greece"},{"postal_code":"null","coordinates":{"lng":"20.8485","lat":"39.6536"},"bank":"empty","address":"Leof. Dodonis 115, Ioannina 452 21, Greece"},{"postal_code":"null","coordinates":{"lng":"25.1335","lat":"35.3381"},"bank":"empty","address":"Evans 18, Iraklio 712 01, Greece"},{"postal_code":"null","coordinates":{"lng":"22.0493","lat":"40.8011"},"bank":"empty","address":"Aristotelous 12, Edessa 582 00, Greece"},{"postal_code":"null","coordinates":{"lng":"22.9657","lat":"40.582"},"bank":"empty","address":"El. Venizelou, Kalamaria 551 33, Greece"},{"postal_code":"null","coordinates":{"lng":"23.6461","lat":"37.9461"},"bank":"empty","address":"Eth. Antistaseos 19-29, Pireas 185 31, Greece"},{"postal_code":"null","coordinates":{"lng":"22.9503","lat":"40.6281"},"bank":"empty","address":"Tsimiski 132, Thessaloniki 546 21, Greece"},{"postal_code":"null","coordinates":{"lng":"28.2245","lat":"36.433"},"bank":"empty","address":"Eth. Antistasis 26, Rodos 851 00, Greece"},{"postal_code":"null","coordinates":{"lng":"24.869","lat":"41.1155"},"bank":"empty","address":"Unnamed Road, Xanthi 671 00, Greece"},{"postal_code":"null","coordinates":{"lng":"22.8947","lat":"40.6676"},"bank":"empty","address":"Andrea Papandreou 20-26, Eleftherio Kordelio 563 34, Greece"},{"postal_code":"null","coordinates":{"lng":"24.2524","lat":"40.9126"},"bank":"empty","address":"Thrakis, Eleftheroupoli 641 00, Greece"},{"postal_code":"null","coordinates":{"lng":"23.7599","lat":"37.8925"},"bank":"empty","address":"Leof. Iasonidou 77-83, Elliniko 167 77, Greece"},{"postal_code":"null","coordinates":{"lng":"21.7431","lat":"38.2608"},"bank":"empty","address":"Ellinos Stratiotou 106, Patra 264 41, Greece"},{"postal_code":"null","coordinates":{"lng":"24.0225","lat":"35.5128"},"bank":"empty","address":"Str. Tzanakaki 21, Chania 731 34, Greece"},{"postal_code":"null","coordinates":{"lng":"23.7927","lat":"38.3933"},"bank":"empty","address":"Filos Menedimou 50, Eretria 340 08, Greece"},{"postal_code":"null","coordinates":{"lng":"23.6513","lat":"37.9428"},"bank":"empty","address":"Grigoriou Lampraki 110, Pireas 185 32, Greece"},{"postal_code":"null","coordinates":{"lng":"22.9084","lat":"40.6693"},"bank":"empty","address":"28is Oktovriou 29-33, Evosmos 562 24, Greece"},{"postal_code":"null","coordinates":{"lng":"22.9117","lat":"40.6685"},"bank":"empty","address":"Meg. Alexandrou 104-106, Evosmos 562 24, Greece"},{"postal_code":"null","coordinates":{"lng":"20.8988","lat":"37.7853"},"bank":"empty","address":"Lomvardou 16, Zakinthos 291 00, Greece"},{"postal_code":"null","coordinates":{"lng":"20.8985","lat":"37.7869"},"bank":"empty","address":"Desila, Zakinthos 291 00, Greece"},{"postal_code":"null","coordinates":{"lng":"23.7739","lat":"37.9768"},"bank":"empty","address":"Leof. Stratarchou Alexandrou Papagou 112-116, Zografou 157 72, Greece"},{"postal_code":"null","coordinates":{"lng":"20.2639","lat":"39.498"},"bank":"empty","address":"Ag. Apostolon, Igoumenitsa 461 00, Greece"},{"postal_code":"null","coordinates":{"lng":"23.75","lat":"37.9398"},"bank":"empty","address":"Leof. Vitsi 5, Ilioupoli 163 46, Greece"},{"postal_code":"null","coordinates":{"lng":"23.7563","lat":"37.9391"},"bank":"empty","address":"Posidonos 16, Ilioupoli 163 45, Greece"},{"postal_code":"null","coordinates":{"lng":"23.2844","lat":"41.1821"},"bank":"empty","address":"El. Venizelou 36, Iraklia 624 00, Greece"},{"postal_code":"null","coordinates":{"lng":"25.1385","lat":"35.3271"},"bank":"empty","address":"Leof. Eth. Antistaseos 2, Iraklio 713 06, Greece"},{"postal_code":"null","coordinates":{"lng":"25.1237","lat":"35.339"},"bank":"empty","address":"Archiepiskopou Makariou 22, Iraklio 712 02, Greece"},{"postal_code":"null","coordinates":{"lng":"22.421","lat":"39.6314"},"bank":"empty","address":"Ir. Politechniou 109-115, Larisa 412 23, Greece"},{"postal_code":"null","coordinates":{"lng":"23.0193","lat":"40.547"},"bank":"empty","address":"Agiou Nikolaou 38, Thermi 570 01, Greece"},{"postal_code":"null","coordinates":{"lng":"24.8885","lat":"41.1392"},"bank":"empty","address":"Michail Karaoli 26, Xanthi 671 00, Greece"},{"postal_code":"null","coordinates":{"lng":"22.9423","lat":"40.6343"},"bank":"empty","address":"Vasileos Irakleiou 37-39, Thessaloniki 546 24, Greece"},{"postal_code":"null","coordinates":{"lng":"23.318","lat":"38.3203"},"bank":"empty","address":"Pindarou 68, Thiva 322 00, Greece"},{"postal_code":"null","coordinates":{"lng":"23.3181","lat":"38.3213"},"bank":"empty","address":"Pindarou 86, Thiva 322 00, Greece"},{"postal_code":"null","coordinates":{"lng":"25.4323","lat":"36.4175"},"bank":"empty","address":"Dekigala 40c, Thira 847 00, Greece"},{"postal_code":"null","coordinates":{"lng":"22.9376","lat":"40.6341"},"bank":"empty","address":"Ionos Dragoumi 5, Thessaloniki 546 25, Greece"},{"postal_code":"null","coordinates":{"lng":"25.7387","lat":"35.0082"},"bank":"empty","address":"Dimokratias 3, Ierapetra 722 00, Greece"},{"postal_code":"null","coordinates":{"lng":"25.7396","lat":"35.0096"},"bank":"empty","address":"Omirias 5, Ierapetra 722 00, Greece"},{"postal_code":"null","coordinates":{"lng":"23.8755","lat":"40.3965"},"bank":"empty","address":"Vasileos Georgiou, Ierissos 630 75, Greece"},{"postal_code":"null","coordinates":{"lng":"23.7094","lat":"38.032"},"bank":"empty","address":"Protesilaou 65, Ilion 131 22, Greece"},{"postal_code":"null","coordinates":{"lng":"23.1505","lat":"38.9526"},"bank":"empty","address":"Strimmenou, Istiea 342 00, Greece"},{"postal_code":"null","coordinates":{"lng":"20.8559","lat":"39.668"},"bank":"empty","address":"Averof 22, Ioannina 452 21, Greece"},{"postal_code":"null","coordinates":{"lng":"20.8521","lat":"39.6688"},"bank":"empty","address":"Dagkli 7-9, Ioannina 454 44, Greece"},{"postal_code":"null","coordinates":{"lng":"22.9553","lat":"39.3716"},"bank":"empty","address":"Iolkou 177, Volos, Greece"},{"postal_code":"null","coordinates":{"lng":"22.8586","lat":"40.6844"},"bank":"empty","address":"K.Karamanli 32, Delta 570 08, Greece"},{"postal_code":"null","coordinates":{"lng":"24.4032","lat":"40.9362"},"bank":"empty","address":"Erithrou Stavrou 50, Kavala 654 03, Greece"},{"postal_code":"null","coordinates":{"lng":"23.7574","lat":"37.9687"},"bank":"empty","address":"Leof. Eth. Antistaseos 57, Kesariani 161 21, Greece"},{"postal_code":"null","coordinates":{"lng":"22.953","lat":"40.5845"},"bank":"empty","address":"Pontou 62, Kalamaria 551 31, Greece"},{"postal_code":"null","coordinates":{"lng":"22.1106","lat":"37.0384"},"bank":"empty","address":"Antonopoulou 9-15, Kalamata 241 00, Greece"},{"postal_code":"null","coordinates":{"lng":"22.1113","lat":"37.0386"},"bank":"empty","address":"Aristomenous 45-47, Kalamata 241 00, Greece"},{"postal_code":"null","coordinates":{"lng":"22.1103","lat":"37.0389"},"bank":"empty","address":"Mitropetrova 10, Kalamata 241 00, Greece"},{"postal_code":"null","coordinates":{"lng":"21.6247","lat":"39.7062"},"bank":"empty","address":"Geor. Masouta 2-8, Kalampaka 422 00, Greece"},{"postal_code":"null","coordinates":{"lng":"23.7047","lat":"37.9536"},"bank":"empty","address":"Sintagmatarchou Davaki 50, Kallithea 176 72, Greece"},{"postal_code":"null","coordinates":{"lng":"23.7017","lat":"37.9556"},"bank":"empty","address":"Leof. El. Venizelou 163, Kallithea 176 72, Greece"},{"postal_code":"null","coordinates":{"lng":"24.4894","lat":"35.3649"},"bank":"empty","address":"Konstantinoupoleos 15, Rethymno 741 00, Greece"},{"postal_code":"null","coordinates":{"lng":"23.635","lat":"37.9305"},"bank":"empty","address":"Filikis Eterias 46, Pireas 185 39, Greece"},{"postal_code":"null","coordinates":{"lng":"26.2072","lat":"39.2327"},"bank":"empty","address":"Epar.Od. Kallonis-Eresou, Kalloni 811 07, Greece"},{"postal_code":"null","coordinates":{"lng":"26.9818","lat":"36.9495"},"bank":"empty","address":"Dodekanisou, Kalimnos 852 00, Greece"},{"postal_code":"null","coordinates":{"lng":"23.7137","lat":"38.0587"},"bank":"empty","address":"Vasileos Georgiou V 1-5, Kamatero 134 51, Greece"},{"postal_code":"null","coordinates":{"lng":"21.7981","lat":"40.2993"},"bank":"empty","address":"11is Oktovriou 34, Kozani 501 00, Greece"},{"postal_code":"null","coordinates":{"lng":"21.9229","lat":"39.3641"},"bank":"empty","address":"Nik. Plastira 21, Karditsa 431 00, Greece"},{"postal_code":"null","coordinates":{"lng":"21.9225","lat":"39.3653"},"bank":"empty","address":"Valvi 39, Karditsa 431 00, Greece"},{"postal_code":"null","coordinates":{"lng":"26.7063","lat":"37.7934"},"bank":"empty","address":"Ippokrati Zaimi, Neo Karlovasi 832 00, Greece"},{"postal_code":"null","coordinates":{"lng":"21.7934","lat":"38.915"},"bank":"empty","address":"Giorgou Tsitsar, Karpenisi 361 00, Greece"},{"postal_code":"null","coordinates":{"lng":"23.4121","lat":"40.0489"},"bank":"empty","address":"28is Oktovriou, Kassandria 630 77, Greece"},{"postal_code":"null","coordinates":{"lng":"21.2616","lat":"40.5223"},"bank":"empty","address":"Grammou 8, Kastoria 521 00, Greece"},{"postal_code":"null","coordinates":{"lng":"21.2634","lat":"40.5216"},"bank":"empty","address":"3is Septemvriou 12, Kastoria 521 00, Greece"},{"postal_code":"null","coordinates":{"lng":"22.5096","lat":"40.2704"},"bank":"empty","address":"25is Martiou 7, Katerini 601 00, Greece"},{"postal_code":"null","coordinates":{"lng":"22.5104","lat":"40.2699"},"bank":"empty","address":"Ionos Dragoumi 10, Katerini 601 00, Greece"},{"postal_code":"null","coordinates":{"lng":"22.5104","lat":"40.2699"},"bank":"empty","address":"Ionos Dragoumi 10, Katerini 601 00, Greece"},{"postal_code":"null","coordinates":{"lng":"21.5518","lat":"38.1452"},"bank":"empty","address":"Araxou 10, Kato Achaia 252 00, Greece"},{"postal_code":"null","coordinates":{"lng":"22.9704","lat":"40.6078"},"bank":"empty","address":"Papafi 201, Thessaloniki 544 53, Greece"},{"postal_code":"null","coordinates":{"lng":"22.1158","lat":"37.0467"},"bank":"empty","address":"Spartis 31, Kalamata 241 00, Greece"},{"postal_code":"null","coordinates":{"lng":"21.4357","lat":"37.6729"},"bank":"empty","address":"Manolopoulou 18, Pirgos 271 00, Greece"},{"postal_code":"null","coordinates":{"lng":"24.4108","lat":"40.9368"},"bank":"empty","address":"El. Venizelou 27, Kavala 653 02, Greece"},{"postal_code":"null","coordinates":{"lng":"23.7333","lat":"37.9797"},"bank":"empty","address":"Panepistimiou 25-27, Athina 105 64, Greece"},{"postal_code":"null","coordinates":{"lng":"22.9405","lat":"40.6372"},"bank":"empty","address":"Valaoritou 37, Thessaloniki 546 25, Greece"},{"postal_code":"null","coordinates":{"lng":"23.6273","lat":"37.9643"},"bank":"empty","address":"Leof. Salaminos 60, Keratsini 187 57, Greece"},{"postal_code":"null","coordinates":{"lng":"19.8985","lat":"39.6232"},"bank":"empty","address":"Palaiokastritsas 62, Kerkira 491 00, Greece"},{"postal_code":"null","coordinates":{"lng":"19.9191","lat":"39.6211"},"bank":"empty","address":"Samara, Kerkira 491 00, Greece"},{"postal_code":"null","coordinates":{"lng":"19.9189","lat":"39.6258"},"bank":"empty","address":"Kon\/nou Zavitsianou 11, Kerkira 491 00, Greece"},{"postal_code":"null","coordinates":{"lng":"22.7517","lat":"38.0111"},"bank":"empty","address":"Eth. Antistasis 27, Kiato 202 00, Greece"},{"postal_code":"null","coordinates":{"lng":"22.8736","lat":"40.9973"},"bank":"empty","address":"Agiou Georgiou 24, Kilkis 611 00, Greece"},{"postal_code":"null","coordinates":{"lng":"22.8706","lat":"40.9936"},"bank":"empty","address":"Salaminos, Kilkis 611 00, Greece"},{"postal_code":"null","coordinates":{"lng":"23.6541","lat":"35.4944"},"bank":"empty","address":"Ir. Politechniou 136, Kissamos 734 00, Greece"},{"postal_code":"null","coordinates":{"lng":"25.1509","lat":"35.3089"},"bank":"empty","address":"Evrialis, Iraklio 714 09, Greece"},{"postal_code":"null","coordinates":{"lng":"21.7898","lat":"40.3004"},"bank":"empty","address":"Lioufi 2, Kozani 501 00, Greece"},{"postal_code":"null","coordinates":{"lng":"21.795","lat":"40.2992"},"bank":"empty","address":"Patriarchou Fotiou 7, Kozani 501 00, Greece"},{"postal_code":"null","coordinates":{"lng":"23.735","lat":"38.0085"},"bank":"empty","address":"Patision 231, Athina 112 53, Greece"},{"postal_code":"null","coordinates":{"lng":"25.4058","lat":"41.1169"},"bank":"empty","address":"Dim. Mpletsa 1, Komotini 691 00, Greece"},{"postal_code":"null","coordinates":{"lng":"25.4073","lat":"41.1196"},"bank":"empty","address":"Leof. Ir. 1940 1941 6, Komotini 691 00, Greece"},{"postal_code":"null","coordinates":{"lng":"23.7325","lat":"37.9803"},"bank":"empty","address":"Korai 5, Athina 105 64, Greece"},{"postal_code":"null","coordinates":{"lng":"22.9326","lat":"37.9401"},"bank":"empty","address":"Kolokotroni 17, Korinthos 201 00, Greece"},{"postal_code":"null","coordinates":{"lng":"22.9308","lat":"37.9422"},"bank":"empty","address":"Damaskinou 79, Korinthos 201 00, Greece"},{"postal_code":"null","coordinates":{"lng":"23.6558","lat":"37.9806"},"bank":"empty","address":"Grigoriou Lampraki 140, Koridallos 181 21, Greece"},{"postal_code":"null","coordinates":{"lng":"22.5769","lat":"40.7796"},"bank":"empty","address":"Eth. Antistaseos 43, Koufalia 571 00, Greece"},{"postal_code":"null","coordinates":{"lng":"23.1636","lat":"37.3782"},"bank":"empty","address":"Agii Anargiri 28, Kranidi 213 00, Greece"},{"postal_code":"null","coordinates":{"lng":"21.668","lat":"37.2513"},"bank":"empty","address":"El. Venizelou, Kiparissia 245 00, Greece"},{"postal_code":"null","coordinates":{"lng":"23.7405","lat":"37.998"},"bank":"empty","address":"Kerkiras 51, Athina 113 62, Greece"},{"postal_code":"null","coordinates":{"lng":"27.2756","lat":"36.8899"},"bank":"empty","address":"Epar.Od. Ko-Kefalou 322, Kos 853 00, Greece"},{"postal_code":"null","coordinates":{"lng":"27.2925","lat":"36.8919"},"bank":"empty","address":"Korai 8, Kos 853 00, Greece"},{"postal_code":"null","coordinates":{"lng":"23.7439","lat":"37.9277"},"bank":"empty","address":"Spirou Miliou 2-6, Ag. Dimitrios 173 42, Greece"},{"postal_code":"null","coordinates":{"lng":"23.0716","lat":"40.747"},"bank":"empty","address":"Loutron 59, Lagkadas 572 00, Greece"},{"postal_code":"null","coordinates":{"lng":"22.4341","lat":"38.8996"},"bank":"empty","address":"Kapodistriou 2, Lamia 351 00, Greece"},{"postal_code":"null","coordinates":{"lng":"22.4344","lat":"38.8998"},"bank":"empty","address":"Kapodistriou 1, Lamia 351 00, Greece"},{"postal_code":"null","coordinates":{"lng":"22.4384","lat":"38.9002"},"bank":"empty","address":"Kapodistriou 36-38, Lamia 351 00, Greece"},{"postal_code":"null","coordinates":{"lng":"23.7506","lat":"38.022"},"bank":"empty","address":"Ersis 2, Galatsi 111 46, Greece"},{"postal_code":"null","coordinates":{"lng":"22.4159","lat":"39.6387"},"bank":"empty","address":"Kiprou 83, Larisa 412 22, Greece"},{"postal_code":"null","coordinates":{"lng":"22.4178","lat":"39.6354"},"bank":"empty","address":"Mandilara 25, Larisa 412 22, Greece"},{"postal_code":"null","coordinates":{"lng":"22.4149","lat":"39.6378"},"bank":"empty","address":"Ionos Dragoumi 3, Larisa 412 22, Greece"},{"postal_code":"null","coordinates":{"lng":"22.879","lat":"38.4384"},"bank":"empty","address":"Pesonton Machiton 64, Lev\u00e1dhia 321 00, Greece"},{"postal_code":"null","coordinates":{"lng":"23.7127","lat":"37.9951"},"bank":"empty","address":"Lenorman 180, Athina 104 44, Greece"},{"postal_code":"null","coordinates":{"lng":"20.7082","lat":"38.8319"},"bank":"empty","address":"Golemi, Lefkada 311 00, Greece"},{"postal_code":"null","coordinates":{"lng":"20.7049","lat":"38.831"},"bank":"empty","address":"Fotinou, Lefkada 311 00, Greece"},{"postal_code":"null","coordinates":{"lng":"23.7565","lat":"37.9873"},"bank":"empty","address":"Leof. Alexandras 170, Athina 115 21, Greece"},{"postal_code":"null","coordinates":{"lng":"25.0603","lat":"39.8775"},"bank":"empty","address":"Kida, Mirina 814 00, Greece"},{"postal_code":"null","coordinates":{"lng":"22.8712","lat":"38.4368"},"bank":"empty","address":"Tzoumagias 2-6, Lev\u00e1dhia 321 00, Greece"},{"postal_code":"null","coordinates":{"lng":"24.5787","lat":"40.6279"},"bank":"empty","address":"Unnamed Road, Limenaria 640 02, Greece"},{"postal_code":"null","coordinates":{"lng":"22.9776","lat":"37.9725"},"bank":"empty","address":"Tompazi, Loutraki 203 00, Greece"},{"postal_code":"null","coordinates":{"lng":"23.6808","lat":"38.0088"},"bank":"empty","address":"Krioneriou 1-3, Peristeri 121 36, Greece"},{"postal_code":"null","coordinates":{"lng":"21.7318","lat":"38.244"},"bank":"empty","address":"Maizonos 173, Patra 262 22, Greece"},{"postal_code":"null","coordinates":{"lng":"23.9334","lat":"37.8833"},"bank":"empty","address":"Papakonstantinou 16-20, Markopoulo Mesogeas 190 03, Greece"},{"postal_code":"null","coordinates":{"lng":"22.5078","lat":"40.2711"},"bank":"empty","address":"Meg. Alexandrou 6, Katerini 601 00, Greece"},{"postal_code":"null","coordinates":{"lng":"22.4165","lat":"39.637"},"bank":"empty","address":"Meg. Alexandrou 4, Larisa 412 22, Greece"},{"postal_code":"null","coordinates":{"lng":"23.3453","lat":"37.9961"},"bank":"empty","address":"Mavroukaki 24, Megara 191 00, Greece"},{"postal_code":"null","coordinates":{"lng":"23.7376","lat":"38.0813"},"bank":"empty","address":"Dekelias 14, Acharnes 136 73, Greece"},{"postal_code":"null","coordinates":{"lng":"21.4325","lat":"38.3724"},"bank":"empty","address":"Spirou Moustakli, Mesolongi 302 00, Greece"},{"postal_code":"null","coordinates":{"lng":"23.7601","lat":"38.0611"},"bank":"empty","address":"Nikis 13, Metamorfosi 144 52, Greece"},{"postal_code":"null","coordinates":{"lng":"24.8799","lat":"35.0496"},"bank":"empty","address":"28is Oktovriou 5, Mires 704 00, Greece"},{"postal_code":"null","coordinates":{"lng":"22.8516","lat":"36.8042"},"bank":"empty","address":"\u0391\u03bd\u03bd\u03c4\u03ad\u03bd\u03b1 \u039d\u03cc\u03c4\u03b9\u03b1\u03c2 \u0395\u03bb\u03bb\u03ac\u03b4\u03b1\u03c2 \u03a1\u03ac\u03b4\u03b9\u03bf, Molai 230 52, Greece"},{"postal_code":"null","coordinates":{"lng":"26.5555","lat":"39.1052"},"bank":"empty","address":"P. Kountourioti 15, Mitilini 811 00, Greece"},{"postal_code":"null","coordinates":{"lng":"26.5579","lat":"39.1069"},"bank":"empty","address":"Archipelagous 23, Mitilini 811 00, Greece"},{"postal_code":"null","coordinates":{"lng":"23.8172","lat":"38.0879"},"bank":"empty","address":"Leof. Kifisias 375, Nea Erithrea 146 71, Greece"},{"postal_code":"null","coordinates":{"lng":"22.9501","lat":"40.6838"},"bank":"empty","address":"25is Martiou 13, Efkarpia 564 29, Greece"},{"postal_code":"null","coordinates":{"lng":"25.3844","lat":"37.0993"},"bank":"empty","address":"Leof. Naxou Glinadou Apollona, Naxos 843 00, Greece"},{"postal_code":"null","coordinates":{"lng":"22.07","lat":"40.6306"},"bank":"empty","address":"Vasileos Filippou 1, Naousa 592 00, Greece"},{"postal_code":"null","coordinates":{"lng":"21.831","lat":"38.394"},"bank":"empty","address":"Leof. Tzavela 50, Nafpaktos 303 00, Greece"},{"postal_code":"null","coordinates":{"lng":"21.8332","lat":"38.3933"},"bank":"empty","address":"Psarrou, Nafpaktos 303 00, Greece"},{"postal_code":"null","coordinates":{"lng":"22.8016","lat":"37.5672"},"bank":"empty","address":"Polizoidi 4, Nafplio 211 00, Greece"},{"postal_code":"null","coordinates":{"lng":"22.9251","lat":"39.3658"},"bank":"empty","address":"Larisis 146, Volos 383 34, Greece"},{"postal_code":"null","coordinates":{"lng":"22.9442","lat":"40.6512"},"bank":"empty","address":"Anatolikis Romilias 35, Neapoli 567 28, Greece"},{"postal_code":"null","coordinates":{"lng":"23.6369","lat":"38.5114"},"bank":"empty","address":"Eth. Antistaseos 33, Nea Artaki 346 00, Greece"},{"postal_code":"null","coordinates":{"lng":"23.7513","lat":"38.0412"},"bank":"empty","address":"Leof. Irakliou 199, Nea Ionia 142 31, Greece"},{"postal_code":"null","coordinates":{"lng":"23.7593","lat":"38.0469"},"bank":"empty","address":"Leof. Irakliou 293, Nea Ionia 142 31, Greece"},{"postal_code":"null","coordinates":{"lng":"22.9355","lat":"39.371"},"bank":"empty","address":"Leof. Irinis 16-26, Nea Ionia 384 46, Greece"},{"postal_code":"null","coordinates":{"lng":"22.9576","lat":"40.5722"},"bank":"empty","address":"Smirnis 34, Kalamaria 551 32, Greece"},{"postal_code":"null","coordinates":{"lng":"23.9775","lat":"38.0849"},"bank":"empty","address":"Leof. Marathonos 139, Nea Makri 190 05, Greece"},{"postal_code":"null","coordinates":{"lng":"22.9233","lat":"40.6769"},"bank":"empty","address":"Ithakis, Evosmos 562 24, Greece"},{"postal_code":"null","coordinates":{"lng":"23.713","lat":"37.9473"},"bank":"empty","address":"25is Martiou 19, Nea Smirni 171 21, Greece"},{"postal_code":"null","coordinates":{"lng":"23.736","lat":"37.9568"},"bank":"empty","address":"Leof. Geor. Kafantari 5-7, Athina 116 31, Greece"},{"postal_code":"null","coordinates":{"lng":"23.766","lat":"38.046"},"bank":"empty","address":"Marinou Antipa 1-3, Iraklio 141 21, Greece"},{"postal_code":"null","coordinates":{"lng":"23.7296","lat":"37.9579"},"bank":"empty","address":"Ilia Iliou 66, Athina 117 44, Greece"},{"postal_code":"null","coordinates":{"lng":"23.2849","lat":"40.2391"},"bank":"empty","address":"Kiprou 64, Nea Moudania 632 00, Greece"},{"postal_code":"null","coordinates":{"lng":"23.2824","lat":"40.2393"},"bank":"empty","address":"Agiou Georgiou 26, Nea Moudania 632 00, Greece"},{"postal_code":"null","coordinates":{"lng":"23.4988","lat":"40.9102"},"bank":"empty","address":"\u03a3\u03c4\u03b1\u03c5\u03c1\u03b9\u03b1\u03bd\u03bf\u03c0\u03bf\u03c5\u03bb\u03bf\u03c5 35, Nigrita 622 00, Greece"},{"postal_code":"null","coordinates":{"lng":"23.6517","lat":"37.9704"},"bank":"empty","address":"Petrou Ralli 232, Nikea 184 53, Greece"},{"postal_code":"null","coordinates":{"lng":"23.6684","lat":"40.2227"},"bank":"empty","address":"Leof. Sithonias, \u039d\u03b9\u03ba\u03ae\u03c4\u03b7 630 88, Greece"},{"postal_code":"null","coordinates":{"lng":"22.9622","lat":"40.5866"},"bank":"empty","address":"Eth. Antistasis 28-32, Kalamaria 551 33, Greece"},{"postal_code":"null","coordinates":{"lng":"24.8847","lat":"41.1385"},"bank":"empty","address":"Mesologgiou 1, Xanthi 671 00, Greece"},{"postal_code":"null","coordinates":{"lng":"24.89","lat":"41.1373"},"bank":"empty","address":"Michail Karaoli 41, Xanthi 671 00, Greece"},{"postal_code":"null","coordinates":{"lng":"21.737","lat":"38.2473"},"bank":"empty","address":"Korinthou 222, Patra 262 21, Greece"},{"postal_code":"null","coordinates":{"lng":"24.4111","lat":"40.9384"},"bank":"empty","address":"Omonias 83-89, Kavala 653 02, Greece"},{"postal_code":"null","coordinates":{"lng":"26.5324","lat":"41.5038"},"bank":"empty","address":"Konstantinoupoleos 209, Orestiada 682 00, Greece"},{"postal_code":"null","coordinates":{"lng":"26.5322","lat":"41.5023"},"bank":"empty","address":"Konstantinoupoleos 218, Orestiada 682 00, Greece"},{"postal_code":"null","coordinates":{"lng":"23.7516","lat":"37.9686"},"bank":"empty","address":"Imittou 72, Athina 116 34, Greece"},{"postal_code":"null","coordinates":{"lng":"23.7473","lat":"37.9676"},"bank":"empty","address":"Frinis 1, Athina 116 34, Greece"},{"postal_code":"null","coordinates":{"lng":"23.8628","lat":"37.95"},"bank":"empty","address":"Leof. Lavriou 144-146, Peania 190 02, Greece"},{"postal_code":"null","coordinates":{"lng":"23.6932","lat":"37.9276"},"bank":"empty","address":"Agiou Alexandrou 19, Paleo Faliro 175 61, Greece"},{"postal_code":"null","coordinates":{"lng":"23.037","lat":"40.5911"},"bank":"empty","address":"Leof. Komninon 16-18, Panorama 552 36, Greece"},{"postal_code":"null","coordinates":{"lng":"23.7623","lat":"37.9928"},"bank":"empty","address":"Panormou 70-72, Ampelokipi Menemeni 115 23, Greece"},{"postal_code":"null","coordinates":{"lng":"22.9598","lat":"40.6171"},"bank":"empty","address":"Al. Papanastasiou 18, Thessaloniki 546 39, Greece"},{"postal_code":"null","coordinates":{"lng":"24.4093","lat":"40.9365"},"bank":"empty","address":"Erithrou Stavrou, Kavala 653 02, Greece"},{"postal_code":"null","coordinates":{"lng":"21.7882","lat":"40.3024"},"bank":"empty","address":"P. Mela 17, Kozani 501 00, Greece"},{"postal_code":"null","coordinates":{"lng":"23.6477","lat":"37.9436"},"bank":"empty","address":"Leof. Ir. Politechniou 37, Pireas 185 31, Greece"},{"postal_code":"null","coordinates":{"lng":"22.9268","lat":"40.5048"},"bank":"empty","address":"Ampelokipon 34, Perea 570 19, Greece"},{"postal_code":"null","coordinates":{"lng":"23.6535","lat":"37.9706"},"bank":"empty","address":"Petrou Ralli 207, Nikea 184 54, Greece"},{"postal_code":"null","coordinates":{"lng":"23.6933","lat":"38.0153"},"bank":"empty","address":"Leof. Panagi Tsaldari 46, Peristeri 121 34, Greece"},{"postal_code":"null","coordinates":{"lng":"23.7112","lat":"37.9698"},"bank":"empty","address":"Trion Ierarchon 113, Athina 118 51, Greece"},{"postal_code":"null","coordinates":{"lng":"23.6849","lat":"38.0421"},"bank":"empty","address":"25is Martiou 79-89, Petroupoli 132 31, Greece"},{"postal_code":"null","coordinates":{"lng":"23.795","lat":"38.0593"},"bank":"empty","address":"Chrisostomou Smirnis 1, Pefki 151 21, Greece"},{"postal_code":"null","coordinates":{"lng":"22.9845","lat":"40.6576"},"bank":"empty","address":"Leof. Papanikolaou, Pefka 570 10, Greece"},{"postal_code":"null","coordinates":{"lng":"22.217","lat":"40.5098"},"bank":"empty","address":"A. Anagnostopoulou 156, Veria 591 32, Greece"},{"postal_code":"null","coordinates":{"lng":"24.0179","lat":"35.5139"},"bank":"empty","address":"Chatzimichali Giannari 68-76, Chania 731 35, Greece"},{"postal_code":"null","coordinates":{"lng":"20.8547","lat":"39.6667"},"bank":"empty","address":"Averof 1-5, Ioannina 452 21, Greece"},{"postal_code":"null","coordinates":{"lng":"25.1362","lat":"35.3372"},"bank":"empty","address":"Averof 2, Iraklio 712 01, Greece"},{"postal_code":"null","coordinates":{"lng":"22.5092","lat":"40.2714"},"bank":"empty","address":"Kanari, Katerini 601 00, Greece"},{"postal_code":"null","coordinates":{"lng":"22.922","lat":"40.6528"},"bank":"empty","address":"El. Venizelou 71, Ampelokipi 561 21, Greece"},{"postal_code":"null","coordinates":{"lng":"28.2224","lat":"36.4509"},"bank":"empty","address":"Ierou Lochou 14, Rodos 851 00, Greece"},{"postal_code":"null","coordinates":{"lng":"19.9192","lat":"39.622"},"bank":"empty","address":"Mantzarou 24, Kerkira 491 00, Greece"},{"postal_code":"null","coordinates":{"lng":"21.4093","lat":"38.6267"},"bank":"empty","address":"Papastratou 21-23, Agrinio 301 31, Greece"},{"postal_code":"null","coordinates":{"lng":"23.7316","lat":"37.9854"},"bank":"empty","address":"Tzortz 4, Athina 106 77, Greece"},{"postal_code":"null","coordinates":{"lng":"23.7329","lat":"37.9751"},"bank":"empty","address":"Mitropoleos 7, Athina 105 57, Greece"},{"postal_code":"null","coordinates":{"lng":"23.723","lat":"37.9961"},"bank":"empty","address":"Admitou 9, Athina 104 40, Greece"},{"postal_code":"null","coordinates":{"lng":"23.807","lat":"38.0542"},"bank":"empty","address":"Dim. Ralli 2, Marousi 151 24, Greece"},{"postal_code":"null","coordinates":{"lng":"23.7273","lat":"37.9815"},"bank":"empty","address":"Athinas 59-61, Athina 105 51, Greece"},{"postal_code":"null","coordinates":{"lng":"23.4419","lat":"40.3787"},"bank":"empty","address":"Char. Trikoupi, Poligiros 631 00, Greece"},{"postal_code":"null","coordinates":{"lng":"24.0055","lat":"37.8875"},"bank":"empty","address":"Leof. G. Gregou 5, Porto Rafti 190 03, Greece"},{"postal_code":"null","coordinates":{"lng":"20.7493","lat":"38.9619"},"bank":"empty","address":"EO21 14, Preveza 481 00, Greece"},{"postal_code":"null","coordinates":{"lng":"20.7549","lat":"38.9568"},"bank":"empty","address":"El. Venizelou 866, Preveza 481 00, Greece"},{"postal_code":"null","coordinates":{"lng":"21.6799","lat":"40.515"},"bank":"empty","address":"Gonatas, Ptolemaida 502 00, Greece"},{"postal_code":"null","coordinates":{"lng":"21.6785","lat":"40.5115"},"bank":"empty","address":"Filippou 2, Ptolemaida 502 00, Greece"},{"postal_code":"null","coordinates":{"lng":"21.4378","lat":"37.6736"},"bank":"empty","address":"Meg. Alexandrou 2, Pirgos 271 00, Greece"},{"postal_code":"null","coordinates":{"lng":"21.4413","lat":"37.6725"},"bank":"empty","address":"Avgerinou 12, Pirgos 271 00, Greece"},{"postal_code":"null","coordinates":{"lng":"20.8502","lat":"39.6639"},"bank":"empty","address":"Pirsinela 5-11, Ioannina 453 32, Greece"},{"postal_code":"null","coordinates":{"lng":"24.0092","lat":"38.0202"},"bank":"empty","address":"Christou Mantika 1, Rafina 190 09, Greece"},{"postal_code":"null","coordinates":{"lng":"24.48","lat":"35.3654"},"bank":"empty","address":"Kountouriotou 111, Rethymno 741 00, Greece"},{"postal_code":"null","coordinates":{"lng":"24.4701","lat":"35.3666"},"bank":"empty","address":"Igoumenou Gavriil 38, Rethymno 741 00, Greece"},{"postal_code":"null","coordinates":{"lng":"21.7367","lat":"38.2492"},"bank":"empty","address":"Kolokotroni 13, Patra 262 21, Greece"},{"postal_code":"null","coordinates":{"lng":"28.2203","lat":"36.4539"},"bank":"empty","address":"Patmou 4, Rodos 851 00, Greece"},{"postal_code":"null","coordinates":{"lng":"23.5035","lat":"37.9647"},"bank":"empty","address":"Avenue Ippokratous 174-192, Paloukia 189 00, Greece"},{"postal_code":"null","coordinates":{"lng":"22.9533","lat":"40.6076"},"bank":"empty","address":"Leof. Vasilissis Olgas 82-84, Thessaloniki 546 43, Greece"},{"postal_code":"null","coordinates":{"lng":"26.9764","lat":"37.756"},"bank":"empty","address":"Sofouli 25, Samos 831 00, Greece"},{"postal_code":"null","coordinates":{"lng":"25.4341","lat":"36.4123"},"bank":"empty","address":"Epar.Od. Firon-Ormou Perissis, Santorini 847 00, Greece"},{"postal_code":"null","coordinates":{"lng":"23.549","lat":"41.089"},"bank":"empty","address":"Peristeri Kostopoulou 2-6, Serres 621 22, Greece"},{"postal_code":"null","coordinates":{"lng":"23.5398","lat":"41.0875"},"bank":"empty","address":"Ithakis 2-6, Serres 621 21, Greece"},{"postal_code":"null","coordinates":{"lng":"23.548","lat":"41.0916"},"bank":"empty","address":"Nik. Plastira 10, Serres 621 21, Greece"},{"postal_code":"null","coordinates":{"lng":"21.5496","lat":"40.2616"},"bank":"empty","address":"Ioannidi, Siatista 503 00, Greece"},{"postal_code":"null","coordinates":{"lng":"22.928","lat":"40.6435"},"bank":"empty","address":"Anagenniseos 52, Thessaloniki 546 27, Greece"},{"postal_code":"null","coordinates":{"lng":"21.735","lat":"38.2372"},"bank":"empty","address":"Archiepiskopou Ierotheou 107, Patra 262 24, Greece"},{"postal_code":"null","coordinates":{"lng":"22.6684","lat":"36.8531"},"bank":"empty","address":"Karaiskaki, Skala 230 51, Greece"},{"postal_code":"null","coordinates":{"lng":"24.0151","lat":"35.5131"},"bank":"empty","address":"Manousogiannakidon 8, Chania 731 36, Greece"},{"postal_code":"null","coordinates":{"lng":"22.1541","lat":"40.7676"},"bank":"empty","address":"Sachini, Skidra 585 00, Greece"},{"postal_code":"null","coordinates":{"lng":"26.3066","lat":"41.1943"},"bank":"empty","address":"Ermou, Soufli 684 00, Greece"},{"postal_code":"null","coordinates":{"lng":"22.4291","lat":"37.0771"},"bank":"empty","address":"Thermopilon 95, Sparti 231 00, Greece"},{"postal_code":"null","coordinates":{"lng":"22.4306","lat":"37.0735"},"bank":"empty","address":"Kon\/nou Palaiologou 40-44, Sparti 231 00, Greece"},{"postal_code":"null","coordinates":{"lng":"23.7341","lat":"37.9771"},"bank":"empty","address":"Stadiou 4, Athina 105 62, Greece"},{"postal_code":"null","coordinates":{"lng":"22.9367","lat":"40.665"},"bank":"empty","address":"Grigoriou Lampraki 2-4, Stavroupoli 564 29, Greece"},{"postal_code":"null","coordinates":{"lng":"23.7218","lat":"37.9603"},"bank":"empty","address":"Leof. Andrea Siggrou 87, Athina 117 45, Greece"},{"postal_code":"null","coordinates":{"lng":"23.7218","lat":"37.9603"},"bank":"empty","address":"Leof. Andrea Siggrou 87, Athina 117 45, Greece"},{"postal_code":"null","coordinates":{"lng":"24.9427","lat":"37.4433"},"bank":"empty","address":"Akti Ethnikis Antistaseos, Ermoupoli 841 00, Greece"},{"postal_code":"null","coordinates":{"lng":"23.6993","lat":"37.9686"},"bank":"empty","address":"Pireos 205, Athina 177 78, Greece"},{"postal_code":"null","coordinates":{"lng":"25.1633","lat":"37.5369"},"bank":"empty","address":"Epar.Od. Tinou-Kallonis, Tinos 842 00, Greece"},{"postal_code":"null","coordinates":{"lng":"22.991","lat":"40.6092"},"bank":"empty","address":"Geor. Seferi 1-3, Pilea 543 52, Greece"},{"postal_code":"null","coordinates":{"lng":"22.9803","lat":"40.6136"},"bank":"empty","address":"Grigoriou Lampraki 159-161, Thessaloniki 543 52, Greece"},{"postal_code":"null","coordinates":{"lng":"22.9726","lat":"40.6165"},"bank":"empty","address":"Isidorou 2-4, Thessaloniki 543 51, Greece"},{"postal_code":"null","coordinates":{"lng":"21.7695","lat":"39.5547"},"bank":"empty","address":"Dionisiou 11, Trikala 421 00, Greece"},{"postal_code":"null","coordinates":{"lng":"21.7695","lat":"39.5547"},"bank":"empty","address":"Dionisiou 11, Trikala 421 00, Greece"},{"postal_code":"null","coordinates":{"lng":"21.766","lat":"39.5516"},"bank":"empty","address":"Asklipiou 17, Trikala 421 00, Greece"},{"postal_code":"null","coordinates":{"lng":"21.7668","lat":"39.5533"},"bank":"empty","address":"Asklipiou, Trikala 421 00, Greece"},{"postal_code":"null","coordinates":{"lng":"22.3714","lat":"37.5106"},"bank":"empty","address":"Ethnomartyron 5-11, Tripoli 221 00, Greece"},{"postal_code":"null","coordinates":{"lng":"22.3724","lat":"37.5106"},"bank":"empty","address":"Eth. Antistaseos 1, Tripoli 221 00, Greece"},{"postal_code":"null","coordinates":{"lng":"22.3909","lat":"37.5069"},"bank":"empty","address":"EO7 72, Tripoli 221 00, Greece"},{"postal_code":"null","coordinates":{"lng":"23.694","lat":"38.0145"},"bank":"empty","address":"Irodotou 1, Peristeri 121 34, Greece"},{"postal_code":"null","coordinates":{"lng":"24.7642","lat":"35.0726"},"bank":"empty","address":"Leof. Kokkinou Pirgou 156, Timpaki 702 00, Greece"},{"postal_code":"null","coordinates":{"lng":"22.2886","lat":"39.7388"},"bank":"empty","address":"Agias Paraskevis, Tirnavos 401 00, Greece"},{"postal_code":"null","coordinates":{"lng":"22.3831","lat":"39.2952"},"bank":"empty","address":"28is Oktovriou 44, Farsala 403 00, Greece"},{"postal_code":"null","coordinates":{"lng":"22.3973","lat":"39.6287"},"bank":"empty","address":"Chatzimichali 81, Larisa 413 34, Greece"},{"postal_code":"null","coordinates":{"lng":"21.4072","lat":"40.7801"},"bank":"empty","address":"Nik. Chasou 31-33, Florina 531 00, Greece"},{"postal_code":"null","coordinates":{"lng":"21.4041","lat":"40.7796"},"bank":"empty","address":"Sotiriou 1, Florina 531 00, Greece"},{"postal_code":"null","coordinates":{"lng":"23.6104","lat":"38.4696"},"bank":"empty","address":"Leof. Chaina 89, Chalkida 341 00, Greece"},{"postal_code":"null","coordinates":{"lng":"23.8008","lat":"38.0223"},"bank":"empty","address":"Agiou Georgiou 4-10, Chalandri 152 34, Greece"},{"postal_code":"null","coordinates":{"lng":"23.5955","lat":"38.4631"},"bank":"empty","address":"Kriezotou 76, Chalkida 341 00, Greece"},{"postal_code":"null","coordinates":{"lng":"23.5942","lat":"38.4627"},"bank":"empty","address":"\u039c\u03b1\u03c1\u03b3\u03b1\u03c1\u03af\u03c4\u03b7 17, Chalkida 341 00, Greece"},{"postal_code":"null","coordinates":{"lng":"24.0245","lat":"35.5113"},"bank":"empty","address":"Str. Tzanakaki 90, Chania 731 34, Greece"},{"postal_code":"null","coordinates":{"lng":"24.0237","lat":"35.5119"},"bank":"empty","address":"Str. Tzanakaki 82, Chania 731 34, Greece"},{"postal_code":"null","coordinates":{"lng":"22.9684","lat":"40.6054"},"bank":"empty","address":"Str. Gennadiou 50, Thessaloniki 542 50, Greece"},{"postal_code":"null","coordinates":{"lng":"22.9683","lat":"40.6034"},"bank":"empty","address":"Plateon 21-23, Thessaloniki 542 49, Greece"},{"postal_code":"null","coordinates":{"lng":"23.7088","lat":"37.9593"},"bank":"empty","address":"Charokopou 74, Kallithea 176 71, Greece"},{"postal_code":"null","coordinates":{"lng":"26.136","lat":"38.3708"},"bank":"empty","address":"EO75, Chios 821 00, Greece"},{"postal_code":"null","coordinates":{"lng":"26.1349","lat":"38.3698"},"bank":"empty","address":"Pachnou 7-9, Chios 821 00, Greece"},{"postal_code":"null","coordinates":{"lng":"23.7959","lat":"38.0055"},"bank":"empty","address":"Leof. Mesogeion 246, Cholargos 155 61, Greece"},{"postal_code":"null","coordinates":{"lng":"24.7019","lat":"40.9848"},"bank":"empty","address":"El. Venizelou, Chrisoupoli 642 00, Greece"},{"postal_code":"null","coordinates":{"lng":"23.6419","lat":"38.5745"},"bank":"empty","address":"Avanton 24, Psachna 344 00, Greece"},{"postal_code":"null","coordinates":{"lng":"22.9185","lat":"40.7308"},"bank":"empty","address":"Leof. Dimokratias 29, Oreokastro 570 13, Greece"},{"postal_code":"null","coordinates":{"lng":"24.8075","lat":"40.9609"},"bank":"empty","address":"Epar.Od. Toxoton-Zilotis, Avato 672 00, Greece"},{"postal_code":"null","coordinates":{"lng":"22.7547","lat":"39.7175"},"bank":"empty","address":"25is Martiou, Agia 400 03, Greece"},{"postal_code":"null","coordinates":{"lng":"25.1302","lat":"35.3372"},"bank":"empty","address":"Panarous 4-6, Iraklio 712 01, Greece"},{"postal_code":"null","coordinates":{"lng":"22.5415","lat":"40.5032"},"bank":"empty","address":"Chrisostomou Smirnis 3, Eginio 603 00, Greece"},{"postal_code":"null","coordinates":{"lng":"25.8771","lat":"40.846"},"bank":"empty","address":"Leof. Dimokratias 244-246, Alexandroupoli 681 00, Greece"},{"postal_code":"null","coordinates":{"lng":"23.1019","lat":"38.3724"},"bank":"empty","address":"EO Thivon Livadias 7, Aliartos 320 01, Greece"},{"postal_code":"null","coordinates":{"lng":"23.9552","lat":"41.0664"},"bank":"empty","address":"Egnatias 38, Alistrati 620 45, Greece"},{"postal_code":"null","coordinates":{"lng":"23.8832","lat":"38.3925"},"bank":"empty","address":"Vasilissis Sofias, Amarinthos 340 06, Greece"},{"postal_code":"null","coordinates":{"lng":"22.3603","lat":"39.7452"},"bank":"empty","address":"Agiou Konstantinou 3, Ampelonas 404 00, Greece"},{"postal_code":"null","coordinates":{"lng":"23.7025","lat":"37.9312"},"bank":"empty","address":"Agias Triados 35, Paleo Faliro 175 64, Greece"},{"postal_code":"null","coordinates":{"lng":"21.1665","lat":"38.8633"},"bank":"empty","address":"Nik. Stratou 7, Amfilochia 305 00, Greece"},{"postal_code":"null","coordinates":{"lng":"23.767","lat":"37.9734"},"bank":"empty","address":"Mouskou 10, Zografou 157 71, Greece"},{"postal_code":"null","coordinates":{"lng":"23.7028","lat":"38.0785"},"bank":"empty","address":"Str. Liosi 32, Ano Liosia 133 41, Greece"},{"postal_code":"null","coordinates":{"lng":"22.5403","lat":"40.9853"},"bank":"empty","address":"Meg. Alexandrou 15, Axioupoli 614 00, Greece"},{"postal_code":"null","coordinates":{"lng":"20.4893","lat":"38.1731"},"bank":"empty","address":"Pana, Argostoli 281 00, Greece"},{"postal_code":"null","coordinates":{"lng":"21.2604","lat":"40.4514"},"bank":"empty","address":"\u0392. \u03a3\u03b1\u03bd\u03c4\u03b1\u03bb\u03af\u03b4\u03b7, Argos Orestiko 522 00, Greece"},{"postal_code":"null","coordinates":{"lng":"23.601","lat":"40.4882"},"bank":"empty","address":"Aristotelous 93, Arnea 630 74, Greece"},{"postal_code":"null","coordinates":{"lng":"28.1158","lat":"36.2127"},"bank":"empty","address":"Vasileos Pavlou, Archaggelos 851 02, Greece"},{"postal_code":"null","coordinates":{"lng":"25.0935","lat":"35.0431"},"bank":"empty","address":"Epar.Od. Agion Deka - Pretorion, Asimi 700 16, Greece"},{"postal_code":"null","coordinates":{"lng":"21.0827","lat":"38.5347"},"bank":"empty","address":"Eth. Antistaseos 10, Astakos 300 06, Greece"},{"postal_code":"null","coordinates":{"lng":"23.1765","lat":"38.3151"},"bank":"empty","address":"Epar.Od. Vagion-Thesion, Vagia 320 02, Greece"},{"postal_code":"null","coordinates":{"lng":"24.1983","lat":"35.4081"},"bank":"empty","address":"\u0395\u03c0\u03b1\u03c1.\u039f\u03b4. \u0391\u03c0\u03bf\u03ba\u03bf\u03c1\u03ce\u03bd\u03bf\u03c5 - \u03a7\u03b1\u03bd\u03af\u03c9\u03bd, Vamos 730 08, Greece"},{"postal_code":"null","coordinates":{"lng":"22.9545","lat":"40.6187"},"bank":"empty","address":"Leof. Vasileos Georgiou 35, Thessaloniki 546 40, Greece"},{"postal_code":"null","coordinates":{"lng":"23.1359","lat":"40.4796"},"bank":"empty","address":"Anapafseos 20, Vasilika 570 06, Greece"},{"postal_code":"null","coordinates":{"lng":"22.0746","lat":"40.2562"},"bank":"empty","address":"\u039f\u03b4\u03c5\u03c3\u03c3\u03ad\u03b1 \u0395\u03bb\u03cd\u03c4\u03b7, Velventos 504 00, Greece"},{"postal_code":"null","coordinates":{"lng":"22.7454","lat":"39.382"},"bank":"empty","address":"Riga Fereou 66, Velestino 375 00, Greece"},{"postal_code":"null","coordinates":{"lng":"20.8886","lat":"38.9205"},"bank":"empty","address":"Venizelou 52, Vonitsa 300 02, Greece"},{"postal_code":"null","coordinates":{"lng":"23.7997","lat":"35.4666"},"bank":"empty","address":"Epar.Od. Tavronitis-Paleochoras, Voukolies 730 02, Greece"},{"postal_code":"null","coordinates":{"lng":"23.8277","lat":"38.0377"},"bank":"empty","address":"Leof. Pentelis 48-50, Vrilissia 152 35, Greece"},{"postal_code":"null","coordinates":{"lng":"22.9594","lat":"40.5899"},"bank":"empty","address":"Leof. Vasilissis Olgas 226, Thessaloniki 551 33, Greece"},{"postal_code":"null","coordinates":{"lng":"23.7538","lat":"37.9602"},"bank":"empty","address":"Ilioupoleos 18, Vironas 162 32, Greece"},{"postal_code":"null","coordinates":{"lng":"25.1332","lat":"35.3388"},"bank":"empty","address":"Apostolou Pavlou, Iraklio 712 02, Greece"},{"postal_code":"null","coordinates":{"lng":"21.6347","lat":"37.0661"},"bank":"empty","address":"Vasileos Georgiou V, Gargaliani 244 00, Greece"},{"postal_code":"null","coordinates":{"lng":"22.4503","lat":"40.9461"},"bank":"empty","address":"Dragoumi 2, Goumenissa 613 00, Greece"},{"postal_code":"null","coordinates":{"lng":"21.7353","lat":"38.2425"},"bank":"empty","address":"Athanasiou Diakou 15-23, Patra 262 25, Greece"},{"postal_code":"null","coordinates":{"lng":"21.8092","lat":"39.9248"},"bank":"empty","address":"Christoy Mttrasinika, Deskati 512 00, Greece"},{"postal_code":"null","coordinates":{"lng":"26.2929","lat":"41.7049"},"bank":"empty","address":"Epar.Od. Kiprinou - Dikeon, Dikea 680 07, Greece"},{"postal_code":"null","coordinates":{"lng":"22.6663","lat":"38.4281"},"bank":"empty","address":"Kalavriton 9, Distomo 320 05, Greece"},{"postal_code":"null","coordinates":{"lng":"22.3027","lat":"39.1272"},"bank":"empty","address":"Unnamed Road, Domokos 350 10, Greece"},{"postal_code":"null","coordinates":{"lng":"24.2316","lat":"41.0942"},"bank":"empty","address":"Nikou Kazantzaki 5, Doxato 663 00, Greece"},{"postal_code":"null","coordinates":{"lng":"24.1408","lat":"41.1524"},"bank":"empty","address":"Thermopilon 2-8, Drama 661 00, Greece"},{"postal_code":"null","coordinates":{"lng":"22.4659","lat":"39.5603"},"bank":"empty","address":"I. Papagiannopoulou, Nikea 415 00, Greece"},{"postal_code":"null","coordinates":{"lng":"22.1879","lat":"39.8941"},"bank":"empty","address":"Olimpou 2, Elassona 402 00, Greece"},{"postal_code":"null","coordinates":{"lng":"23.5488","lat":"41.0911"},"bank":"empty","address":"Alexandrou 5, Serres 621 21, Greece"},{"postal_code":"null","coordinates":{"lng":"23.7538","lat":"37.8924"},"bank":"empty","address":"Tripoleos 34-40, Elliniko 167 77, Greece"},{"postal_code":"null","coordinates":{"lng":"22.9238","lat":"40.423"},"bank":"empty","address":"25is Martiou 18, Epanomi 575 00, Greece"},{"postal_code":"null","coordinates":{"lng":"23.7687","lat":"37.9939"},"bank":"empty","address":"Sintagmatarchou Davaki 6, Ampelokipi Menemeni 115 26, Greece"},{"postal_code":"null","coordinates":{"lng":"23.2884","lat":"40.5725"},"bank":"empty","address":"Laskaridi, Zagkliveri 570 12, Greece"},{"postal_code":"null","coordinates":{"lng":"21.7372","lat":"38.2208"},"bank":"empty","address":"Anthias 233, Patra 263 32, Greece"},{"postal_code":"null","coordinates":{"lng":"21.6478","lat":"37.4833"},"bank":"empty","address":"EO Pirgou Kiparissias, Zacharo 270 54, Greece"},{"postal_code":"null","coordinates":{"lng":"25.1143","lat":"35.3329"},"bank":"empty","address":"Leof. 62 Martiron 129-131, Iraklio 713 04, Greece"},{"postal_code":"null","coordinates":{"lng":"24.7104","lat":"40.7801"},"bank":"empty","address":"18is Oktovriou 11, Limenas Thassos 640 04, Greece"},{"postal_code":"null","coordinates":{"lng":"21.6662","lat":"38.5713"},"bank":"empty","address":"Epar.Od. Thermou - Nafpaktou 6, Thermo 300 08, Greece"},{"postal_code":"null","coordinates":{"lng":"20.7813","lat":"39.2548"},"bank":"empty","address":"Kerkiras, Thesprotiko 483 00, Greece"},{"postal_code":"null","coordinates":{"lng":"25.1843","lat":"41.1272"},"bank":"empty","address":"Ethinki Odos Komotinis-Xanthis 54, Iasmos 692 00, Greece"},{"postal_code":"null","coordinates":{"lng":"22.9535","lat":"40.5846"},"bank":"empty","address":"Metamorfoseos 3, Kalamaria 551 32, Greece"},{"postal_code":"null","coordinates":{"lng":"24.1885","lat":"41.051"},"bank":"empty","address":"28is Oktovriou, Kalampaki 660 31, Greece"},{"postal_code":"null","coordinates":{"lng":"20.8547","lat":"39.6616"},"bank":"empty","address":"Agias Marinas 18, Ioannina 452 21, Greece"},{"postal_code":"null","coordinates":{"lng":"24.1743","lat":"35.4517"},"bank":"empty","address":"Palea EO Chanion Rethimnou 608, Kalives 730 03, Greece"},{"postal_code":"null","coordinates":{"lng":"20.5995","lat":"39.2333"},"bank":"empty","address":"Agiou Panteleimonos 79, Kanallaki 480 62, Greece"},{"postal_code":"null","coordinates":{"lng":"24.4196","lat":"38.0158"},"bank":"empty","address":"Ellinon Amerikis 82, Karistos 340 01, Greece"},{"postal_code":"null","coordinates":{"lng":"25.3387","lat":"35.2088"},"bank":"empty","address":"Epar.Od. Agiou Paraskion-Kastamonitsis, Kastelli 700 06, Greece"},{"postal_code":"null","coordinates":{"lng":"21.2585","lat":"40.5209"},"bank":"empty","address":"Athanasiou Diakou 32, Kastoria 521 00, Greece"},{"postal_code":"null","coordinates":{"lng":"22.0723","lat":"40.6331"},"bank":"empty","address":"Petridi 3, Naousa 592 00, Greece"},{"postal_code":"null","coordinates":{"lng":"21.1144","lat":"38.7851"},"bank":"empty","address":"Xenofontos, Katouna 300 04, Greece"},{"postal_code":"null","coordinates":{"lng":"21.2555","lat":"38.4116"},"bank":"empty","address":"Iniados 21, Katochi 300 07, Greece"},{"postal_code":"null","coordinates":{"lng":"23.8651","lat":"41.3441"},"bank":"empty","address":"El. Venizelou 42, Kato Nevrokopi 660 33, Greece"},{"postal_code":"null","coordinates":{"lng":"23.7319","lat":"38.0194"},"bank":"empty","address":"Kossou 10, Athina 111 44, Greece"},{"postal_code":"null","coordinates":{"lng":"22.7155","lat":"38.6073"},"bank":"empty","address":"Ledontos 10, Kato Tithorea 350 15, Greece"},{"postal_code":"null","coordinates":{"lng":"24.7052","lat":"40.8592"},"bank":"empty","address":"Epar.Od. Chrisoupolis-Keramotis, Keramoti 640 11, Greece"},{"postal_code":"null","coordinates":{"lng":"22.7502","lat":"38.0119"},"bank":"empty","address":"Klisthenous, Kiato 202 00, Greece"},{"postal_code":"null","coordinates":{"lng":"22.8057","lat":"37.6382"},"bank":"empty","address":"Epar.Od. Argous - Arachneou 2, Ag. Triada 210 55, Greece"},{"postal_code":"null","coordinates":{"lng":"22.7964","lat":"37.9371"},"bank":"empty","address":"Efstathios Papakonstantinou, Zevgolatio 200 01, Greece"},{"postal_code":"null","coordinates":{"lng":"22.4839","lat":"40.4802"},"bank":"empty","address":"Aristotelous, Kolindros 600 61, Greece"},{"postal_code":"null","coordinates":{"lng":"24.9833","lat":"35.2303"},"bank":"empty","address":"Pl. Agias Triados, Krousonas 700 01, Greece"},{"postal_code":"null","coordinates":{"lng":"23.2462","lat":"40.6357"},"bank":"empty","address":"Epar.Od. Lagadikia-Lagadas, Lagkadikia 570 20, Greece"},{"postal_code":"null","coordinates":{"lng":"22.1323","lat":"39.1814"},"bank":"empty","address":"Epar.Od. Anavras - Asimochoriou, Leontari 430 63, Greece"},{"postal_code":"null","coordinates":{"lng":"22.2742","lat":"39.2409"},"bank":"empty","address":"EO Karditsas Volou, Neo Monastiri 350 10, Greece"},{"postal_code":"null","coordinates":{"lng":"21.2753","lat":"38.4088"},"bank":"empty","address":"Aletra, Neochori Mesologgiou 300 01, Greece"},{"postal_code":"null","coordinates":{"lng":"25.1962","lat":"35.2111"},"bank":"empty","address":"Epar.Od. Knossou - Charaka 10, Kalloni 701 00, Greece"},{"postal_code":"null","coordinates":{"lng":"21.9053","lat":"39.487"},"bank":"empty","address":"Adamantiou Korai, Proastio 430 70, Greece"},{"postal_code":"null","coordinates":{"lng":"23.3877","lat":"41.0675"},"bank":"empty","address":"Unnamed Road, Provatas 621 00, Greece"},{"postal_code":"null","coordinates":{"lng":"26.2935","lat":"41.0301"},"bank":"empty","address":"Epar.Od. Tichiou - Lefkimi 48, Tichero 680 03, Greece"},{"postal_code":"null","coordinates":{"lng":"21.7074","lat":"40.6237"},"bank":"empty","address":"Epar.Od. Filoton - Arnissas 67, Filotas 530 70, Greece"},{"postal_code":"null","coordinates":{"lng":"22.7801","lat":"41.0899"},"bank":"empty","address":"Epar.Od. Chersou-Polikastrou, Cherso 610 02, Greece"},{"postal_code":"null","coordinates":{"lng":"21.6203","lat":"37.5921"},"bank":"empty","address":"Xenofontos 138, Krestena 270 55, Greece"},{"postal_code":"null","coordinates":{"lng":"24.2923","lat":"41.011"},"bank":"empty","address":"Filippou, Krinides 640 03, Greece"},{"postal_code":"null","coordinates":{"lng":"22.3036","lat":"40.6849"},"bank":"empty","address":"Vasileos Pavlou 75, Kria Vrisi 583 00, Greece"},{"postal_code":"null","coordinates":{"lng":"24.1044","lat":"38.6325"},"bank":"empty","address":"Vogiatzi 16, Kimi 340 03, Greece"},{"postal_code":"null","coordinates":{"lng":"20.0729","lat":"39.4233"},"bank":"empty","address":"Ag. Theodoron, Lefkimmi 490 80, Greece"},{"postal_code":"null","coordinates":{"lng":"21.263","lat":"37.9367"},"bank":"empty","address":"Prantouna 7, Lechena 270 53, Greece"},{"postal_code":"null","coordinates":{"lng":"25.3956","lat":"35.3138"},"bank":"empty","address":"Theotokopoulou 1, Limenas Chersonisou 700 14, Greece"},{"postal_code":"null","coordinates":{"lng":"22.5","lat":"40.1038"},"bank":"empty","address":"Enippeos, Litochoro 602 00, Greece"},{"postal_code":"null","coordinates":{"lng":"23.0375","lat":"37.6121"},"bank":"empty","address":"Asklipiou 81, Ligourio 210 52, Greece"},{"postal_code":"null","coordinates":{"lng":"22.1177","lat":"38.943"},"bank":"empty","address":"EO38 34, Makrakomi 350 11, Greece"},{"postal_code":"null","coordinates":{"lng":"21.4732","lat":"38.5233"},"bank":"empty","address":"Agiou Georgiou, Mataragka 300 11, Greece"},{"postal_code":"null","coordinates":{"lng":"23.7496","lat":"40.8913"},"bank":"empty","address":"Unnamed Road, Mavrothalassa 620 49, Greece"},{"postal_code":"null","coordinates":{"lng":"22.1312","lat":"37.3978"},"bank":"empty","address":"Apostolou Zerva 10, Megalopoli 222 00, Greece"},{"postal_code":"null","coordinates":{"lng":"21.9673","lat":"37.2246"},"bank":"empty","address":"Unnamed Road, Meligalas 240 02, Greece"},{"postal_code":"null","coordinates":{"lng":"22.3989","lat":"40.5196"},"bank":"empty","address":"Epar.Od. Verias-Kipselis 37, Meliki 590 31, Greece"},{"postal_code":"null","coordinates":{"lng":"23.7384","lat":"38.0816"},"bank":"empty","address":"Dekelias 23, Acharnes 136 73, Greece"},{"postal_code":"null","coordinates":{"lng":"22.0093","lat":"37.0513"},"bank":"empty","address":"Politechniou 19, Messini 242 00, Greece"},{"postal_code":"null","coordinates":{"lng":"21.6631","lat":"39.4255"},"bank":"empty","address":"Leof. Kiprou 15, Mouzaki 430 60, Greece"},{"postal_code":"null","coordinates":{"lng":"23.8271","lat":"41.031"},"bank":"empty","address":"Profiti Iliou, Nea Zichni 620 42, Greece"},{"postal_code":"null","coordinates":{"lng":"22.8583","lat":"40.4641"},"bank":"empty","address":"Politechniou 37, Nea Michaniona 570 04, Greece"},{"postal_code":"null","coordinates":{"lng":"23.0633","lat":"40.311"},"bank":"empty","address":"Antonioy Kelesi 7, Nea Kallikratia 630 80, Greece"},{"postal_code":"null","coordinates":{"lng":"21.3875","lat":"40.3131"},"bank":"empty","address":"EO Kozanis Ioanninon 14, Neapoli 500 01, Greece"},{"postal_code":"null","coordinates":{"lng":"23.059","lat":"36.5099"},"bank":"empty","address":"Geor. Varvaressou, Neapoli Vion 230 53, Greece"},{"postal_code":"null","coordinates":{"lng":"25.6063","lat":"35.256"},"bank":"empty","address":"Eth. Antistaseos 7, Neapoli 724 00, Greece"},{"postal_code":"null","coordinates":{"lng":"22.8155","lat":"39.2781"},"bank":"empty","address":"Diamantopoulou 41, Nea Agchialos 374 00, Greece"},{"postal_code":"null","coordinates":{"lng":"24.3019","lat":"40.8383"},"bank":"empty","address":"Grigoriou E, Nea Peramos 640 07, Greece"},{"postal_code":"null","coordinates":{"lng":"23.7373","lat":"38.033"},"bank":"empty","address":"Anneon 2-8, Nea Filadelfia 143 41, Greece"},{"postal_code":"null","coordinates":{"lng":"22.6609","lat":"37.822"},"bank":"empty","address":"Agiou Georgiou, Nemea 205 00, Greece"},{"postal_code":"null","coordinates":{"lng":"25.4218","lat":"40.9742"},"bank":"empty","address":"Epar.Od. Komotinis - Paralia Maronias 401, Xilagani 694 00, Greece"},{"postal_code":"null","coordinates":{"lng":"22.6332","lat":"38.0781"},"bank":"empty","address":"\u0391\u03b4\u03b1\u03bc\u03bf\u03c0\u03bf\u03cd\u03bb\u03bf\u03c5, Xilokastro 204 00, Greece"},{"postal_code":"null","coordinates":{"lng":"21.9812","lat":"39.6047"},"bank":"empty","address":"Dimokratias, Ichalia 423 00, Greece"},{"postal_code":"null","coordinates":{"lng":"22.9829","lat":"38.4924"},"bank":"empty","address":"Evaggelisti Louka, Orchomenos 323 00, Greece"},{"postal_code":"null","coordinates":{"lng":"22.0835","lat":"39.4711"},"bank":"empty","address":"Str. Grigoriou Goulianou, Palamas 432 00, Greece"},{"postal_code":"null","coordinates":{"lng":"23.8772","lat":"38.0036"},"bank":"empty","address":"El. Venizelou 8, Pallini 153 51, Greece"},{"postal_code":"null","coordinates":{"lng":"23.7937","lat":"37.9898"},"bank":"empty","address":"Ierolochiton, Papagos 156 69, Greece"},{"postal_code":"null","coordinates":{"lng":"26.4542","lat":"39.0391"},"bank":"empty","address":"Epar.Od. Therma Kolpou Geras-Plomariou, Pappados 811 06, Greece"},{"postal_code":"null","coordinates":{"lng":"24.407","lat":"40.9369"},"bank":"empty","address":"El. Venizelou 30a, Kavala 654 03, Greece"},{"postal_code":"null","coordinates":{"lng":"20.5121","lat":"39.4671"},"bank":"empty","address":"Kon\/nou Karamanli 141, Paramithia 462 00, Greece"},{"postal_code":"null","coordinates":{"lng":"24.7035","lat":"35.3707"},"bank":"empty","address":"Epar.Od. Peramatos-Exantis, Perama 740 52, Greece"},{"postal_code":"null","coordinates":{"lng":"23.7411","lat":"38.0031"},"bank":"empty","address":"Pl. Kanari 6-7, Athina 113 61, Greece"},{"postal_code":"null","coordinates":{"lng":"22.4335","lat":"38.9"},"bank":"empty","address":"Tzavella, Lamia 351 00, Greece"},{"postal_code":"null","coordinates":{"lng":"22.5357","lat":"40.6433"},"bank":"empty","address":"El. Venizelou, Plati 590 32, Greece"},{"postal_code":"null","coordinates":{"lng":"22.9474","lat":"40.6612"},"bank":"empty","address":"Agiou Panteleimonos 7, Polichni 565 33, Greece"},{"postal_code":"null","coordinates":{"lng":"22.5729","lat":"40.9938"},"bank":"empty","address":"Meg. Alexandrou 127, Polikastro 612 00, Greece"},{"postal_code":"null","coordinates":{"lng":"25.1485","lat":"35.3387"},"bank":"empty","address":"Vitsi 6, Iraklio 713 07, Greece"},{"postal_code":"null","coordinates":{"lng":"23.9728","lat":"41.1782"},"bank":"empty","address":"El. Venizelou 33, Prosotsani 662 00, Greece"},{"postal_code":"null","coordinates":{"lng":"21.6171","lat":"39.4587"},"bank":"empty","address":"EO Artas Trikalon 13, Pili 420 32, Greece"},{"postal_code":"null","coordinates":{"lng":"21.6967","lat":"36.9133"},"bank":"empty","address":"Ikonomidi, Pilos 240 01, Greece"},{"postal_code":"null","coordinates":{"lng":"22.5864","lat":"39.9193"},"bank":"empty","address":"Unnamed Road, Pirgetos 400 07, Greece"},{"postal_code":"null","coordinates":{"lng":"23.9748","lat":"40.9199"},"bank":"empty","address":"P. Mela, Rodolivos 620 41, Greece"},{"postal_code":"null","coordinates":{"lng":"23.0003","lat":"41.2604"},"bank":"empty","address":"Epar.Od. Rodopolis-Kastanousas 49, Rodopoli 620 53, Greece"},{"postal_code":"null","coordinates":{"lng":"25.6958","lat":"41.0235"},"bank":"empty","address":"Antoniou Papadima 43, Sapes 693 00, Greece"},{"postal_code":"null","coordinates":{"lng":"21.9982","lat":"40.1826"},"bank":"empty","address":"Pl. 10is Oktovriou, Servia 505 00, Greece"},{"postal_code":"null","coordinates":{"lng":"26.1052","lat":"35.2058"},"bank":"empty","address":"Papandreou 40, Sitia 723 00, Greece"},{"postal_code":"null","coordinates":{"lng":"26.107","lat":"35.207"},"bank":"empty","address":"Kon\/nou Karamanli 14, Sitia 723 00, Greece"},{"postal_code":"null","coordinates":{"lng":"23.3914","lat":"41.2362"},"bank":"empty","address":"El. Venizelou 44, Sidirokastro 623 00, Greece"},{"postal_code":"null","coordinates":{"lng":"22.0942","lat":"39.3299"},"bank":"empty","address":"Agiou Georgiou 74, Sofades 433 00, Greece"},{"postal_code":"null","coordinates":{"lng":"23.3567","lat":"40.8172"},"bank":"empty","address":"Meg. Alexandrou, Sochos 570 02, Greece"},{"postal_code":"null","coordinates":{"lng":"24.5356","lat":"35.2174"},"bank":"empty","address":"Epar.Od. Rethimou-Agias Galinis 26, Spili 740 53, Greece"},{"postal_code":"null","coordinates":{"lng":"22.616","lat":"38.914"},"bank":"empty","address":"Falaron 3, Stilida 353 00, Greece"},{"postal_code":"null","coordinates":{"lng":"22.5795","lat":"39.7579"},"bank":"empty","address":"Agiou Konstantinou, Sikourio 400 06, Greece"},{"postal_code":"null","coordinates":{"lng":"23.5822","lat":"38.347"},"bank":"empty","address":"Anapafseos, Schimatari 320 09, Greece"},{"postal_code":"null","coordinates":{"lng":"22.0676","lat":"39.597"},"bank":"empty","address":"Davaki, Farkadona 420 31, Greece"},{"postal_code":"null","coordinates":{"lng":"26.1694","lat":"40.894"},"bank":"empty","address":"Dimokritou 14, Feres 685 00, Greece"},{"postal_code":"null","coordinates":{"lng":"21.5861","lat":"37.1567"},"bank":"empty","address":"Theodorakopoulou, Filiatra 243 00, Greece"},{"postal_code":"null","coordinates":{"lng":"20.8798","lat":"39.2081"},"bank":"empty","address":"Mpizaniou 224, Filippiada 482 00, Greece"},{"postal_code":"null","coordinates":{"lng":"21.408","lat":"40.7792"},"bank":"empty","address":"25is Martiou 11-13, Florina 531 00, Greece"},{"postal_code":"null","coordinates":{"lng":"23.6641","lat":"38.0037"},"bank":"empty","address":"Karaiskaki 42-46, Chaidari 124 61, Greece"},{"postal_code":"null","coordinates":{"lng":"22.7272","lat":"40.6251"},"bank":"empty","address":"Venizelou 75, Chalastra 573 00, Greece"},{"postal_code":"null","coordinates":{"lng":"22.597","lat":"40.7339"},"bank":"empty","address":"EO Giannitson Thessalonikis 70, Chalkidona 570 07, Greece"},{"postal_code":"null","coordinates":{"lng":"21.7148","lat":"37.0518"},"bank":"empty","address":"Stratigopoulou, Chora 246 00, Greece"},{"postal_code":"null","coordinates":{"lng":"23.7922","lat":"38.321"},"bank":"empty","address":"25is Martiou, Skala Oropou 190 15, Greece"}]